{"type": "Feature", "properties": {"style": {"stroke": true, "color": "#3388ff", "weight": 4, "opacity": 0.5, "fill": true, "fillColor": null, "fillOpacity": 0.2, "clickable": true}}, "geometry": {"type": "Polygon", "coordinates": [[[133.77142, -25.26314], [133.783693, -25.269582], [133.80661, -25.263761], [133.782577, -25.282388], [133.774166, -25.284717], [133.748245, -25.286812], [133.73786, -25.275403], [133.75494, -25.279905], [133.754168, -25.264304], [133.76893, -25.271755], [133.77142, -25.26314]]]}}