{
"type": "FeatureCollection",
"name": "victoria_boundary",
"crs": { "type": "name", "properties": { "name": "urn:ogc:def:crs:OGC:1.3:CRS84" } },
"features": [
{ "type": "Feature", "properties": { "State": "VIC" }, "geometry": { "type": "MultiPolygon", "coordinates": [ [ [ [ 149.90579162626932, -37.564338463248959 ], [ 149.916476563749853, -37.569640494226817 ], [ 149.918088364658558, -37.561198364315125 ], [ 149.908715387034647, -37.555352333449584 ], [ 149.90579162626932, -37.564338463248959 ] ] ], [ [ [ 144.667354920642111, -38.255469890092122 ], [ 144.677974749452858, -38.249098730766583 ], [ 144.670421771228661, -38.24501874023418 ], [ 144.667354920642111, -38.255469890092122 ] ] ], [ [ [ 145.276584258275648, -38.387555502575992 ], [ 145.274285567485293, -38.398204532481053 ], [ 145.287139405497129, -38.395637193360912 ], [ 145.311062120554425, -38.40189705506782 ], [ 145.318409348518884, -38.408405485620584 ], [ 145.342588003553857, -38.414437117347042 ], [ 145.348900601818798, -38.419891757821922 ], [ 145.364034990755158, -38.405581488793523 ], [ 145.371094239711454, -38.403755369276723 ], [ 145.376843058004056, -38.409846659716742 ], [ 145.385949296746418, -38.406707920335748 ], [ 145.384941647787599, -38.399087620218459 ], [ 145.392383556767726, -38.396458360724154 ], [ 145.389408878205131, -38.388412900466285 ], [ 145.392709718266758, -38.382707880662807 ], [ 145.41085697640861, -38.370768851863033 ], [ 145.426466923547792, -38.371654892964862 ], [ 145.460576938163115, -38.365963855329213 ], [ 145.475917955397136, -38.366442916412772 ], [ 145.47984480512153, -38.362762906666966 ], [ 145.502618762206367, -38.353019868213522 ], [ 145.489868656042631, -38.339088847228496 ], [ 145.473164649726527, -38.332620916011308 ], [ 145.465187802643868, -38.319322875367781 ], [ 145.45356481606035, -38.307277914475563 ], [ 145.42354697128971, -38.307857872368402 ], [ 145.410865953908853, -38.304479891457085 ], [ 145.384978737533601, -38.312824869692321 ], [ 145.374472839257152, -38.313982898963218 ], [ 145.347547744435673, -38.310203887055309 ], [ 145.337850786861452, -38.303860866338333 ], [ 145.33036565947711, -38.292353825744591 ], [ 145.319571771647389, -38.289986824976104 ], [ 145.304060845223773, -38.282505843847581 ], [ 145.290277867525589, -38.283656862893466 ], [ 145.28596086585722, -38.305312002725429 ], [ 145.286400104840141, -38.313681102807358 ], [ 145.278308962584305, -38.346500882444751 ], [ 145.273515962199355, -38.357474762178128 ], [ 145.277593959447415, -38.375542902572803 ], [ 145.276584258275648, -38.387555502575992 ] ] ], [ [ [ 142.008701189380048, -38.417145237072141 ], [ 141.995629371879403, -38.41557467632861 ], [ 141.99819441058284, -38.42476943652747 ], [ 142.008701189380048, -38.417145237072141 ] ] ], [ [ [ 141.002962538926738, -34.021878545204956 ], [ 140.994509759658683, -34.029416774817058 ], [ 140.985704941149521, -34.027511734349275 ], [ 140.980459962810841, -34.015999614002645 ], [ 140.984764662659018, -34.009193624180426 ], [ 140.980381674042775, -33.999623503891094 ], [ 140.968429816145857, -33.995937763249692 ], [ 140.968206507230263, -33.981819083145446 ], [ 140.963688948009008, -33.980636402904551 ], [ 140.962949819551625, -34.095757703621601 ], [ 140.961865799717458, -34.095766343565714 ], [ 140.962574591621149, -34.202763054302537 ], [ 140.964353803659662, -34.438640935932497 ], [ 140.964815608581347, -34.63766530724812 ], [ 140.965347563129228, -34.840446318586032 ], [ 140.965628250306764, -35.008243929680503 ], [ 140.965955502691628, -35.237691421167703 ], [ 140.966231540997853, -35.389128732148237 ], [ 140.964957319857007, -35.536071463016803 ], [ 140.963109073677174, -35.748521084266713 ], [ 140.96350011490108, -35.86034682499249 ], [ 140.963894954228579, -35.996052365866674 ], [ 140.965665539826261, -36.175776547084794 ], [ 140.96735741390583, -36.373943778408979 ], [ 140.968203109694144, -36.551317119554689 ], [ 140.968912580521817, -36.664983070295108 ], [ 140.968586205048126, -36.734235590705993 ], [ 140.969302527710198, -36.824417421299074 ], [ 140.970600730534102, -36.911111191899657 ], [ 140.97198758778552, -37.066535092924816 ], [ 140.971551488785622, -37.178859913588909 ], [ 140.97092668485385, -37.228752823860937 ], [ 140.973025207889236, -37.310113754465235 ], [ 140.97387892537057, -37.462079675432435 ], [ 140.97268652223795, -37.625263516357748 ], [ 140.972931289818433, -37.654253036545356 ], [ 140.971481760850992, -37.766543737146584 ], [ 140.968893182294238, -37.875978087669658 ], [ 140.965802617957735, -38.055984948586499 ], [ 140.990810533172777, -38.059785639906721 ], [ 141.015202128211001, -38.067023321217988 ], [ 141.037814933474692, -38.075346192445494 ], [ 141.086922642884332, -38.096961915139751 ], [ 141.09636059066699, -38.103266895671553 ], [ 141.128374263848002, -38.116236727427946 ], [ 141.184431821391314, -38.144905440549394 ], [ 141.227782431441597, -38.170635192993515 ], [ 141.272796260631566, -38.20277513557204 ], [ 141.33282808562339, -38.252164099062853 ], [ 141.357446129269931, -38.27458426051161 ], [ 141.370743255576542, -38.289691321313008 ], [ 141.387698450617819, -38.311788402352796 ], [ 141.397865926516232, -38.338052573054291 ], [ 141.390310207130682, -38.346701772700499 ], [ 141.368334759902751, -38.360500201605284 ], [ 141.364097259243124, -38.376997421476524 ], [ 141.374325316554064, -38.38674341208192 ], [ 141.385963194463557, -38.386611282704642 ], [ 141.406448229937382, -38.39614912386017 ], [ 141.41341315884884, -38.394193034222567 ], [ 141.40672859221084, -38.369327843715872 ], [ 141.424392289669157, -38.361878524620522 ], [ 141.450216105186854, -38.359850165998104 ], [ 141.4610260530429, -38.36208308659392 ], [ 141.49920913472792, -38.37845175875281 ], [ 141.519121270128323, -38.389965599898773 ], [ 141.528471437104429, -38.405233610496083 ], [ 141.521807587784991, -38.411211780170568 ], [ 141.52502375631326, -38.421387830405251 ], [ 141.539083762950668, -38.430761731223136 ], [ 141.55130261072901, -38.430907541887073 ], [ 141.557528380355535, -38.422341362174251 ], [ 141.557954081750268, -38.405569172097671 ], [ 141.565220980580222, -38.40394805248286 ], [ 141.570518700674654, -38.39197581269962 ], [ 141.578658559560722, -38.387930623118244 ], [ 141.594180366657554, -38.38909340397008 ], [ 141.61478413249057, -38.394192175123528 ], [ 141.624036229796843, -38.405809175697556 ], [ 141.62916057000902, -38.392911675900606 ], [ 141.649978676296229, -38.392416817035496 ], [ 141.636525510069418, -38.377158776209157 ], [ 141.621139334860118, -38.35426375523258 ], [ 141.61960414618261, -38.342378705077984 ], [ 141.607937468294637, -38.342258694440908 ], [ 141.609790178736063, -38.333439724489374 ], [ 141.599226171725263, -38.321060713839799 ], [ 141.608223741341504, -38.306991604246299 ], [ 141.637325957346718, -38.292897305750635 ], [ 141.663815104121284, -38.275463967095412 ], [ 141.678624822092559, -38.268302777863944 ], [ 141.704004408322305, -38.259393459203139 ], [ 141.742020932056903, -38.25309606125623 ], [ 141.769651687059707, -38.25354578278224 ], [ 141.804010440428641, -38.258798454712334 ], [ 141.839221143923623, -38.260909066675815 ], [ 141.884897785249279, -38.266279519246382 ], [ 141.932915535457511, -38.279390032002716 ], [ 141.953254571102946, -38.287218803186754 ], [ 141.990207562972813, -38.303805465356504 ], [ 142.01448461743027, -38.316878266798085 ], [ 142.058587706766673, -38.34705004946165 ], [ 142.073819663223901, -38.35588399037394 ], [ 142.098804457831875, -38.36573885184476 ], [ 142.124037412178296, -38.377932683346209 ], [ 142.137022319558668, -38.381025544100858 ], [ 142.148187266756452, -38.389680694786165 ], [ 142.162953193891838, -38.391935335638323 ], [ 142.172320042384456, -38.389989206159179 ], [ 142.19861477719013, -38.395011917685991 ], [ 142.211641595047695, -38.392815728415435 ], [ 142.2328933112762, -38.392241469624956 ], [ 142.244815158742341, -38.396451370331391 ], [ 142.243041110377163, -38.382195270144685 ], [ 142.251009870046573, -38.370247080528813 ], [ 142.261534678678402, -38.364572891097012 ], [ 142.282092385172632, -38.362528612262317 ], [ 142.309377010845992, -38.356308223790599 ], [ 142.317211989099093, -38.35997013426266 ], [ 142.3371576261234, -38.353424815370495 ], [ 142.354239333365342, -38.350092556334175 ], [ 142.372211270202371, -38.349404637366263 ], [ 142.40463374314092, -38.362706879318814 ], [ 142.426522608141084, -38.374143540654202 ], [ 142.447218503222103, -38.386971351930725 ], [ 142.459274480107155, -38.397087252690994 ], [ 142.473595287099783, -38.401699073550496 ], [ 142.478868116779267, -38.395013993816931 ], [ 142.492186894493841, -38.393857814584706 ], [ 142.509032810573899, -38.403341585622478 ], [ 142.527274477051407, -38.405921356701491 ], [ 142.563325009052193, -38.421991068903708 ], [ 142.603076639423648, -38.448141691388798 ], [ 142.615121526825277, -38.452674562122766 ], [ 142.644368389816691, -38.470999513951291 ], [ 142.670398283279781, -38.490380635600062 ], [ 142.684347340293044, -38.49533080645223 ], [ 142.700769485885502, -38.510465067512229 ], [ 142.72063059132492, -38.520683118747279 ], [ 142.735060497587767, -38.532504819671942 ], [ 142.760392771376758, -38.549560181275162 ], [ 142.77795386691551, -38.56296196239758 ], [ 142.796754862532993, -38.573190843576 ], [ 142.807607770733284, -38.571522754211607 ], [ 142.817634758223761, -38.578747504851727 ], [ 142.828130656121772, -38.580872355489696 ], [ 142.832503724623223, -38.588193325794137 ], [ 142.839906583363188, -38.587388226230736 ], [ 142.85276250056782, -38.592258107026979 ], [ 142.861098437765406, -38.605617237604619 ], [ 142.871740085911199, -38.604895328236189 ], [ 142.881800833771621, -38.608193418857489 ], [ 142.902176409850597, -38.610625500091714 ], [ 142.913919216951854, -38.618586650843014 ], [ 142.920392055828074, -38.618104591228281 ], [ 142.943998060945603, -38.624386712682814 ], [ 142.947671130732118, -38.619768722875897 ], [ 142.969080306374849, -38.624734734193034 ], [ 142.987091123399409, -38.621854755260351 ], [ 143.021681366715285, -38.626232707373198 ], [ 143.038232352684332, -38.636796718436578 ], [ 143.053364229577056, -38.640559719374515 ], [ 143.061067147499585, -38.647506729882451 ], [ 143.0716122555921, -38.647502670521277 ], [ 143.096421299851528, -38.660185762101932 ], [ 143.122986033401816, -38.676780763815295 ], [ 143.173469199895152, -38.720719757153489 ], [ 143.182946207120949, -38.731328677795418 ], [ 143.2202752974612, -38.760271690250761 ], [ 143.233559284469635, -38.766072741099045 ], [ 143.257762099622823, -38.770589752610341 ], [ 143.267554098605956, -38.762993743166192 ], [ 143.295553104270624, -38.755552734843029 ], [ 143.303591203362089, -38.750075695305036 ], [ 143.323325289299362, -38.754879726549511 ], [ 143.341940175833429, -38.755763697703088 ], [ 143.356904293262687, -38.754336748618677 ], [ 143.373056049792041, -38.759699759649244 ], [ 143.396823244196327, -38.772407761196455 ], [ 143.410524130653783, -38.782845772108026 ], [ 143.427414947607673, -38.782648763154839 ], [ 143.465519147899926, -38.81012271568747 ], [ 143.468198246933866, -38.814836735882373 ], [ 143.492987140108994, -38.837616727562782 ], [ 143.49283197949876, -38.843879737590484 ], [ 143.511346054722964, -38.857679708827945 ], [ 143.54361824928742, -38.853422710819387 ], [ 143.555657006944074, -38.854924721581817 ], [ 143.56275800657474, -38.845922731972763 ], [ 143.572058245337388, -38.841497722529091 ], [ 143.584532954265597, -38.82983676324163 ], [ 143.589386104555103, -38.818414793477842 ], [ 143.616036912068722, -38.795495755014528 ], [ 143.628382050196507, -38.791918775769432 ], [ 143.645010057202711, -38.791702796814747 ], [ 143.661520025131779, -38.782730777801341 ], [ 143.668607265506068, -38.766611758151726 ], [ 143.6796189540716, -38.761167638813895 ], [ 143.671161906089992, -38.756439798251918 ], [ 143.671359186869751, -38.748512788216871 ], [ 143.685377225687176, -38.735346759022661 ], [ 143.726138229700013, -38.721894751519059 ], [ 143.728561029685949, -38.717784811647782 ], [ 143.749468006370449, -38.71329075294549 ], [ 143.762938144797403, -38.704955763749879 ], [ 143.770922963250968, -38.705959794262753 ], [ 143.78944890064858, -38.698766715396488 ], [ 143.80140015858197, -38.697879776151176 ], [ 143.810883997373111, -38.693018786725474 ], [ 143.837013902680468, -38.692779748388759 ], [ 143.842067943191978, -38.679065718628635 ], [ 143.866012969628457, -38.671787790113356 ], [ 143.864961040900653, -38.661371729983507 ], [ 143.873434000341121, -38.652058790468836 ], [ 143.883587088942306, -38.647915741093016 ], [ 143.892304128245598, -38.639515781600082 ], [ 143.891454158854032, -38.635137811519343 ], [ 143.907740926847396, -38.626239792508407 ], [ 143.916394966570067, -38.613942822988776 ], [ 143.921538987005192, -38.600874813239727 ], [ 143.919534157747307, -38.59720875308912 ], [ 143.948666884649668, -38.576677314834392 ], [ 143.960268152677202, -38.575607775573218 ], [ 143.966703902417777, -38.567012765935033 ], [ 143.973084131341352, -38.566349746341309 ], [ 143.986803030790128, -38.548037797113501 ], [ 143.977300113051712, -38.542701786469721 ], [ 143.979734073703895, -38.532262776563257 ], [ 143.989823773202119, -38.519731487136951 ], [ 144.0013351420954, -38.510569797822988 ], [ 144.018062170959183, -38.492758818793583 ], [ 144.029251719494653, -38.48760493948437 ], [ 144.036503509434567, -38.475761849880861 ], [ 144.048941317638111, -38.471664730659541 ], [ 144.067383964608553, -38.46909782183657 ], [ 144.104884087899819, -38.469134804265984 ], [ 144.117309346826289, -38.458203025005929 ], [ 144.120989057240337, -38.447996775182929 ], [ 144.131649026626548, -38.435711775800726 ], [ 144.150426963863566, -38.430105766987346 ], [ 144.179400108772143, -38.42935381886894 ], [ 144.181790899577038, -38.41765875895377 ], [ 144.193173017894679, -38.414358829675784 ], [ 144.200028117483384, -38.406661750076211 ], [ 144.224634843892005, -38.399127781637134 ], [ 144.251472119396823, -38.396413833375803 ], [ 144.251576190225364, -38.388397793333901 ], [ 144.285704156350562, -38.367587815443628 ], [ 144.289316046432276, -38.360743755638936 ], [ 144.303486005235442, -38.348244846492975 ], [ 144.317371913063852, -38.345441777388146 ], [ 144.325731112396653, -38.337719787890677 ], [ 144.329230333065368, -38.325545808046677 ], [ 144.340547041628497, -38.320142738758342 ], [ 144.370268337301695, -38.311197490661847 ], [ 144.378278036829386, -38.302264381135679 ], [ 144.398059643875683, -38.297041272409665 ], [ 144.413398331822066, -38.290778133385103 ], [ 144.427429080260708, -38.282083004260116 ], [ 144.435691978880698, -38.281290964802196 ], [ 144.475556471105108, -38.28795274748542 ], [ 144.49989915652128, -38.290476559117671 ], [ 144.49900483744949, -38.28328284901432 ], [ 144.512130706174844, -38.273467269827186 ], [ 144.525572414025277, -38.27131311070854 ], [ 144.549260839668364, -38.27283079229602 ], [ 144.576804604075363, -38.279499824174742 ], [ 144.614249186084947, -38.29212968675553 ], [ 144.618414896963856, -38.27712849694278 ], [ 144.629918125365208, -38.273070817688463 ], [ 144.644281412967956, -38.271731258643094 ], [ 144.659180280093921, -38.273932159656162 ], [ 144.666771030015468, -38.262226970094247 ], [ 144.643700443335405, -38.269278208589142 ], [ 144.625359057923731, -38.256815827283681 ], [ 144.636714897465311, -38.242435817956661 ], [ 144.644443046754475, -38.236357848437628 ], [ 144.662179855681416, -38.217252829510805 ], [ 144.666160025755744, -38.210048779733924 ], [ 144.693080782692448, -38.194416871447373 ], [ 144.703495769971624, -38.202593912198196 ], [ 144.710619619230215, -38.19782675264856 ], [ 144.712416439924255, -38.188475592712237 ], [ 144.719636180298266, -38.173242403105135 ], [ 144.716214081986521, -38.163200342813035 ], [ 144.719675083224018, -38.146103792941283 ], [ 144.714618894454219, -38.142954862581405 ], [ 144.70633769729281, -38.130158211945314 ], [ 144.692923880704939, -38.120399780982886 ], [ 144.668967875749274, -38.112685549325533 ], [ 144.649911819094086, -38.112749788046926 ], [ 144.631822892858139, -38.107326816800935 ], [ 144.626324973316031, -38.112071806461735 ], [ 144.584009138197189, -38.136018823777896 ], [ 144.564591179951861, -38.151583772576757 ], [ 144.526919935662335, -38.160286300119189 ], [ 144.497942440696335, -38.160999588196063 ], [ 144.480667723372761, -38.164476887069945 ], [ 144.468167865747546, -38.162882016230689 ], [ 144.452468999267921, -38.155818015146558 ], [ 144.432700054466466, -38.139690823738519 ], [ 144.426333286967235, -38.126693583237582 ], [ 144.418580876876604, -38.140435832808954 ], [ 144.416906905613928, -38.155127792788228 ], [ 144.402645888096032, -38.155445101847576 ], [ 144.38503300246478, -38.143526140611662 ], [ 144.368579055051299, -38.146509839544635 ], [ 144.3561230681062, -38.138388788674085 ], [ 144.360503149862069, -38.114445808816043 ], [ 144.365783859894577, -38.105325829108189 ], [ 144.381581167956341, -38.097338780100976 ], [ 144.383203299072477, -38.084069580126666 ], [ 144.38946439875528, -38.076643980494332 ], [ 144.397948967563025, -38.073803211037102 ], [ 144.412688283869727, -38.084209652074811 ], [ 144.447914357410838, -38.086678834421079 ], [ 144.458765146504817, -38.07722784508217 ], [ 144.48743688135292, -38.078266676990964 ], [ 144.498319858473224, -38.08734976776968 ], [ 144.507168776652946, -38.089829758373135 ], [ 144.515650167938162, -38.063747418777112 ], [ 144.512019189081883, -38.058994378506412 ], [ 144.515697989861593, -38.045591238668798 ], [ 144.533634737004093, -38.042851079845867 ], [ 144.562039183077161, -38.032920741678183 ], [ 144.567875973171198, -38.022437622003203 ], [ 144.575127792086221, -38.020686602476516 ], [ 144.581508642000188, -38.011007452843103 ], [ 144.592494380762076, -38.004567363537518 ], [ 144.623079805877893, -38.000123095556354 ], [ 144.650183350928501, -38.002005027384399 ], [ 144.688346867290392, -37.973622829772381 ], [ 144.699245145440301, -37.973096470502092 ], [ 144.718580583752214, -37.95733121170646 ], [ 144.723360403550799, -37.951430101992052 ], [ 144.744043931246068, -37.939252753311322 ], [ 144.761034418485053, -37.937333624446225 ], [ 144.77818781649151, -37.928034415547742 ], [ 144.791591634200358, -37.927584366451384 ], [ 144.799196483385458, -37.922833286936658 ], [ 144.798052275495849, -37.905113156749771 ], [ 144.807592975314236, -37.891368967310726 ], [ 144.808477816351342, -37.880318807302338 ], [ 144.825192294452307, -37.870930668376758 ], [ 144.840437021743639, -37.871430579413705 ], [ 144.850374770823436, -37.863930330041804 ], [ 144.868587468218863, -37.858699061246583 ], [ 144.877523535734014, -37.867292911907256 ], [ 144.892584423065614, -37.867725842934561 ], [ 144.904259340514756, -37.87251181375909 ], [ 144.915529999310138, -37.865529824483801 ], [ 144.903929131741904, -37.861719843669817 ], [ 144.896343114341448, -37.849904883080129 ], [ 144.900318954467792, -37.842351833304072 ], [ 144.918530551591402, -37.83967477452827 ], [ 144.935598238314014, -37.842534605710071 ], [ 144.963790911976275, -37.855750317717373 ], [ 144.975385968428668, -37.869819808597335 ], [ 144.976824356728116, -37.883139518778172 ], [ 144.983935364800175, -37.889473449303942 ], [ 144.983400563623974, -37.901120499339392 ], [ 144.9873338007516, -37.921177529732653 ], [ 144.985531970515126, -37.926224649640524 ], [ 144.99775647711482, -37.937847010549405 ], [ 144.993050057267226, -37.943969290264903 ], [ 145.002642184708094, -37.952075730972034 ], [ 145.011363231923326, -37.963624751641099 ], [ 145.010561331322634, -37.970396801627949 ], [ 145.030687465277737, -37.993497713151108 ], [ 145.038397393622375, -37.996307603697744 ], [ 145.051414162400363, -37.986713284532662 ], [ 145.061656030191955, -37.990534125260282 ], [ 145.073683867194234, -37.998693946137998 ], [ 145.090615012448552, -38.014938977403936 ], [ 145.101617128838853, -38.030248968256508 ], [ 145.112789404490314, -38.051961919160767 ], [ 145.122370249412029, -38.082764960011687 ], [ 145.124368585897258, -38.111397220326005 ], [ 145.121345763996402, -38.133381590252718 ], [ 145.112260403520821, -38.152106939741088 ], [ 145.098744824809074, -38.161936228869685 ], [ 145.087556116523047, -38.164224458112884 ], [ 145.078298037085546, -38.173868797534695 ], [ 145.069163836679593, -38.192093297018083 ], [ 145.061988076970493, -38.200896466578548 ], [ 145.044957728590418, -38.213391825484663 ], [ 145.034108070360929, -38.214669864747364 ], [ 145.031786049823154, -38.22325486464063 ], [ 145.025511960220143, -38.229682854249425 ], [ 145.028552878618626, -38.239339854517375 ], [ 145.025615577591935, -38.253339074401637 ], [ 145.015403898177169, -38.264368853768694 ], [ 144.993828709973201, -38.282632812401857 ], [ 144.982972920399561, -38.296169791741413 ], [ 144.994332737477436, -38.30445583257 ], [ 144.986631967306437, -38.31835283212768 ], [ 144.975007928414527, -38.326956831384742 ], [ 144.945314782140258, -38.340855879439914 ], [ 144.923709005069043, -38.349021848015127 ], [ 144.9061730577464, -38.35293487684352 ], [ 144.859494014472091, -38.367061803753565 ], [ 144.836954068105769, -38.370390802243378 ], [ 144.812190022778935, -38.367835810548627 ], [ 144.774552770371002, -38.359456797950273 ], [ 144.7632300330242, -38.353541817149022 ], [ 144.763686863471662, -38.348690817150256 ], [ 144.749297726732351, -38.342178096138873 ], [ 144.74066091923288, -38.333266795501665 ], [ 144.739090980445013, -38.32467683534329 ], [ 144.707022896891118, -38.317643783139346 ], [ 144.680230292985613, -38.305205511261114 ], [ 144.667983524850086, -38.308024540455541 ], [ 144.666041654748142, -38.312147560350311 ], [ 144.694724437686318, -38.33041172238967 ], [ 144.738255017490701, -38.353208815461123 ], [ 144.755121042918887, -38.367715826687864 ], [ 144.786527794990519, -38.389284868942099 ], [ 144.798933041545126, -38.400650789850957 ], [ 144.841026730589817, -38.432369852897821 ], [ 144.871851742100489, -38.459731845158771 ], [ 144.886676907534678, -38.477234856273988 ], [ 144.885375825973085, -38.493512806284542 ], [ 144.911157961851046, -38.489239858014621 ], [ 144.924403728592353, -38.497382528967456 ], [ 144.951182134845425, -38.488128070739407 ], [ 144.964155872713945, -38.486512741616394 ], [ 144.975610740238295, -38.490449622423967 ], [ 145.011005005135047, -38.47964884478273 ], [ 145.01892284331538, -38.483346865348345 ], [ 145.025684722521362, -38.479660805789891 ], [ 145.026764023363455, -38.470349865807215 ], [ 145.03177773303068, -38.465316886120704 ], [ 145.032321693914469, -38.456487896104221 ], [ 145.04057686350896, -38.446926816612851 ], [ 145.050191003680141, -38.430008807170239 ], [ 145.067722641145309, -38.424805258344087 ], [ 145.076128589569578, -38.425554178927165 ], [ 145.077782850107127, -38.418081828995419 ], [ 145.09639645854881, -38.40240476018181 ], [ 145.111010326107191, -38.401055571181189 ], [ 145.116340165829399, -38.395065481512297 ], [ 145.129941013933859, -38.390439242422879 ], [ 145.152936809555825, -38.393145904028536 ], [ 145.168043646443721, -38.397033865097434 ], [ 145.186793322882323, -38.399161626408898 ], [ 145.203589129251156, -38.405001667608971 ], [ 145.232477813959179, -38.406526479623686 ], [ 145.226372786031362, -38.397699439145626 ], [ 145.217726848003025, -38.393778438521316 ], [ 145.214599750120044, -38.379827218218914 ], [ 145.221705649383352, -38.375171118683696 ], [ 145.214798831326078, -38.368743828164909 ], [ 145.21318498276986, -38.358398867989585 ], [ 145.218237492814808, -38.350010918288909 ], [ 145.214772404283082, -38.342367938001594 ], [ 145.206460475930697, -38.340779987415139 ], [ 145.194424499506368, -38.327829026501185 ], [ 145.200516900231747, -38.311696986824735 ], [ 145.193920212724777, -38.299804856294486 ], [ 145.203394081326991, -38.297340806936248 ], [ 145.206129140130429, -38.303729857165123 ], [ 145.223127916841634, -38.306294768360566 ], [ 145.225966777779831, -38.293421838478771 ], [ 145.221026829652459, -38.284468818080832 ], [ 145.227032030055938, -38.27137786841751 ], [ 145.237236919055732, -38.264225849082557 ], [ 145.25103394858678, -38.246670899933918 ], [ 145.260503727286078, -38.243384820572501 ], [ 145.255051868913512, -38.237419880156565 ], [ 145.253762000566212, -38.224668869988498 ], [ 145.271411717487155, -38.224419841215258 ], [ 145.278634815099991, -38.234386601779555 ], [ 145.274138044805682, -38.244087741525959 ], [ 145.279878983491358, -38.246793701942458 ], [ 145.310613257984983, -38.247620384090553 ], [ 145.332393715435131, -38.23617206554124 ], [ 145.34134249460385, -38.229551946126037 ], [ 145.339588415640407, -38.223072915963577 ], [ 145.344174275803965, -38.214435786231078 ], [ 145.353384204153144, -38.214711696876968 ], [ 145.364863131329201, -38.221869607724365 ], [ 145.384371758000498, -38.22095682908536 ], [ 145.398206924984862, -38.226122830087256 ], [ 145.412134962334193, -38.227902841075618 ], [ 145.423432261639078, -38.216457171798581 ], [ 145.439090718903202, -38.216306902898175 ], [ 145.452787996016525, -38.220541843887744 ], [ 145.459996963902597, -38.228024894441177 ], [ 145.481931749626625, -38.231722916009133 ], [ 145.48827781801026, -38.236137846483722 ], [ 145.490364776000177, -38.250627866720031 ], [ 145.494538954624261, -38.256281837049222 ], [ 145.497969762002015, -38.274063867400592 ], [ 145.504602759759337, -38.283522857926833 ], [ 145.516207717026816, -38.289574918783423 ], [ 145.522139804917316, -38.298930869259991 ], [ 145.515502823936089, -38.317838868907266 ], [ 145.515767811775248, -38.336411899040002 ], [ 145.533884798743344, -38.334957860311413 ], [ 145.542431896938382, -38.337558870931865 ], [ 145.550799734435003, -38.346555901579158 ], [ 145.55245680322966, -38.354552841745523 ], [ 145.548938891896256, -38.371674881601585 ], [ 145.534827621394925, -38.397914840764216 ], [ 145.518869902417151, -38.413696869733016 ], [ 145.501312675173011, -38.416785858512192 ], [ 145.489325787507312, -38.41492591765509 ], [ 145.481353929804101, -38.40715090704537 ], [ 145.459483973499744, -38.408696835514107 ], [ 145.45356196409918, -38.412646845121422 ], [ 145.440336626977427, -38.407925884162054 ], [ 145.423360839470718, -38.412441922996429 ], [ 145.432873795939827, -38.428695873764468 ], [ 145.433406624702997, -38.438749903863439 ], [ 145.429036955047224, -38.442537903579463 ], [ 145.429492693341786, -38.456832893698923 ], [ 145.42009076344371, -38.470612873122533 ], [ 145.432533790127025, -38.48035486405648 ], [ 145.434225608383628, -38.493034844252875 ], [ 145.424635958207233, -38.509554873679761 ], [ 145.418251708893422, -38.513497873255318 ], [ 145.398319972119424, -38.516291831873161 ], [ 145.389252283360605, -38.519559841257077 ], [ 145.363898327737843, -38.520725209487622 ], [ 145.370371345828119, -38.527406149981694 ], [ 145.372017634527253, -38.536283900151176 ], [ 145.393133800842321, -38.535641831627444 ], [ 145.403497828777745, -38.537578902366384 ], [ 145.423693815310799, -38.536465863777828 ], [ 145.436650912595496, -38.540062914710539 ], [ 145.450225119218231, -38.54849484571686 ], [ 145.473894734686127, -38.551292877400776 ], [ 145.493233929807587, -38.563850898840997 ], [ 145.510959604349836, -38.583939890214687 ], [ 145.52328780082982, -38.59547887115599 ], [ 145.54261582479279, -38.618040882660246 ], [ 145.564674806697553, -38.654177884442092 ], [ 145.578791843681671, -38.658472855468759 ], [ 145.588746550769969, -38.668299876234599 ], [ 145.606993886303144, -38.678748857593391 ], [ 145.62738070333674, -38.672905899006516 ], [ 145.656660557636513, -38.676967871114833 ], [ 145.67894668526958, -38.663062862618389 ], [ 145.687402755010822, -38.652285913155907 ], [ 145.713865721075109, -38.645525905004135 ], [ 145.730771167758348, -38.648121766228485 ], [ 145.762231830226, -38.664614728581164 ], [ 145.793329671967797, -38.68781645095271 ], [ 145.833109370064307, -38.728795654060804 ], [ 145.846488295732456, -38.745325825124276 ], [ 145.871469177253232, -38.779430137131541 ], [ 145.887053250399731, -38.813909528465182 ], [ 145.894314188002966, -38.823192649045673 ], [ 145.900156554599647, -38.843146929588684 ], [ 145.914927408523454, -38.872119910831699 ], [ 145.916647467339601, -38.87951488100088 ], [ 145.911731646766299, -38.891826980720232 ], [ 145.91887681370153, -38.906863101327836 ], [ 145.923654482681684, -38.908217931681513 ], [ 145.93672863159702, -38.89752988256258 ], [ 145.945879330208328, -38.895366963211877 ], [ 145.971281895451796, -38.896970915062262 ], [ 145.97907118426636, -38.895163995616258 ], [ 146.006425371523051, -38.876897597491329 ], [ 145.997135105442595, -38.857950476701518 ], [ 145.997849886669314, -38.846541356684142 ], [ 146.008981657078209, -38.826288977369735 ], [ 146.032681284346609, -38.813537689015426 ], [ 146.047757131945247, -38.811024610097512 ], [ 146.063199949092223, -38.81175955122702 ], [ 146.085334754589809, -38.816278412868741 ], [ 146.123150605995733, -38.831529395723933 ], [ 146.184207640503558, -38.869495600427285 ], [ 146.21991690009699, -38.902756733252176 ], [ 146.233854895685909, -38.918594744373515 ], [ 146.246885020946479, -38.938473795453262 ], [ 146.252296148494196, -38.950725885926104 ], [ 146.26822130302142, -38.97230196723045 ], [ 146.27077944149741, -38.981092007472341 ], [ 146.264412750872282, -38.995727167091665 ], [ 146.273920629114514, -38.996103127794953 ], [ 146.281655816444271, -39.006644148429373 ], [ 146.291076834002354, -39.012786129161825 ], [ 146.290576122770119, -39.023689109190883 ], [ 146.303033020553045, -39.023457010109297 ], [ 146.311858097768067, -39.033289980820875 ], [ 146.326367144202095, -39.041104971940861 ], [ 146.320162324316072, -39.049370201532049 ], [ 146.332350251880058, -39.0513221324453 ], [ 146.334826340558749, -39.058508272672 ], [ 146.342478309004406, -39.059934243246964 ], [ 146.342593497769315, -39.069903483315805 ], [ 146.336282647818081, -39.078855782902842 ], [ 146.321572790589613, -39.077908801808981 ], [ 146.324684998073167, -39.093960102136165 ], [ 146.33432106539388, -39.101659102895539 ], [ 146.334721144734232, -39.106478132954258 ], [ 146.344368202099844, -39.113780083712427 ], [ 146.346414390295706, -39.125533183934934 ], [ 146.352574309203135, -39.125357144390073 ], [ 146.367953325372298, -39.133945085581566 ], [ 146.389274031520188, -39.133907737162858 ], [ 146.406265798797079, -39.1310484684073 ], [ 146.420922516784998, -39.125840179465101 ], [ 146.427921067709264, -39.107975989877566 ], [ 146.43510491648513, -39.107374910408346 ], [ 146.437564587755389, -39.093385800506788 ], [ 146.425413551126411, -39.083772789544717 ], [ 146.430842272351072, -39.065766349839528 ], [ 146.444156080175361, -39.063923880819083 ], [ 146.448064900372543, -39.056559531065517 ], [ 146.45572179928763, -39.054147371621141 ], [ 146.464476796771976, -39.061793592319731 ], [ 146.47858368366164, -39.066412723399402 ], [ 146.483431503496917, -39.060632583725997 ], [ 146.477594455477742, -39.053064333244784 ], [ 146.477767216584084, -39.043790003201501 ], [ 146.465713378947555, -39.042227042293391 ], [ 146.460444350549295, -39.036901951868501 ], [ 146.468658900785243, -39.022898502395797 ], [ 146.461617982452253, -39.01963754185131 ], [ 146.445136225660406, -39.017669810611878 ], [ 146.436091456953932, -39.02040910995531 ], [ 146.432645419044036, -39.008385939626066 ], [ 146.444517077238601, -39.005676590493088 ], [ 146.446202867879236, -38.997956400571745 ], [ 146.436682861900522, -38.97905941974858 ], [ 146.444384402803024, -38.960335090208112 ], [ 146.462147643211694, -38.930872531352058 ], [ 146.473473222830592, -38.917359202114042 ], [ 146.479385091975786, -38.91567809254466 ], [ 146.487312821720792, -38.906133873077984 ], [ 146.486562673463283, -38.892972782941975 ], [ 146.468099769147784, -38.873493931446689 ], [ 146.468285600301101, -38.863763851401295 ], [ 146.474945201615611, -38.843209611772586 ], [ 146.47074522387345, -38.830844711384145 ], [ 146.472845145105453, -38.817650701460281 ], [ 146.47889677626452, -38.799258481799363 ], [ 146.468589690251576, -38.781616550923324 ], [ 146.43835911598174, -38.778855988655252 ], [ 146.435544454403612, -38.795986118550324 ], [ 146.427546615538347, -38.798403257970186 ], [ 146.420666945267044, -38.810758447533985 ], [ 146.421163232420895, -38.83345840770918 ], [ 146.417011461285824, -38.848909347494676 ], [ 146.397225624434583, -38.852138546044586 ], [ 146.379021866687879, -38.860424094744189 ], [ 146.368715948580245, -38.860037413977658 ], [ 146.362257098997816, -38.866133623536058 ], [ 146.353252180400119, -38.867872752879535 ], [ 146.346515370661336, -38.875677882428143 ], [ 146.336060571948082, -38.880523071683783 ], [ 146.330628821201572, -38.894727271368254 ], [ 146.323714991403335, -38.903300450909008 ], [ 146.302661254781469, -38.906601799373135 ], [ 146.291923206990674, -38.904267928566071 ], [ 146.287456919864269, -38.887120848132255 ], [ 146.293312769859142, -38.87847265851191 ], [ 146.286260562628513, -38.866008607915624 ], [ 146.27099747605476, -38.860280736754987 ], [ 146.264278081236768, -38.827270146058829 ], [ 146.269275852677481, -38.807883846309188 ], [ 146.265591833647989, -38.805294866021853 ], [ 146.239914087539717, -38.811120144166068 ], [ 146.232131119292319, -38.80812220357511 ], [ 146.227673160970397, -38.800791183202534 ], [ 146.22271095461258, -38.777843082697828 ], [ 146.218502906087878, -38.771813062351704 ], [ 146.202903969778475, -38.764272151159524 ], [ 146.200982871058528, -38.756451110970758 ], [ 146.192847823835251, -38.745391120306024 ], [ 146.18561790536063, -38.743428179763434 ], [ 146.189652656210455, -38.730306049979497 ], [ 146.197266446327973, -38.717971830463178 ], [ 146.20776629420007, -38.720107741247375 ], [ 146.210832254269036, -38.714964631441262 ], [ 146.226390922610392, -38.705657412528197 ], [ 146.230843673720472, -38.689765252758662 ], [ 146.242650431822454, -38.688058123617019 ], [ 146.244209530616672, -38.695802153779084 ], [ 146.252043449277153, -38.695337094353057 ], [ 146.26749309741848, -38.687896955445915 ], [ 146.291949952181028, -38.695248787294751 ], [ 146.330757546207252, -38.687479530114672 ], [ 146.338216325743559, -38.680308370622662 ], [ 146.35113812432877, -38.672972121534308 ], [ 146.360630201720113, -38.680607132284059 ], [ 146.380992047491503, -38.685632013824176 ], [ 146.378879316177802, -38.69962520375303 ], [ 146.383770354361928, -38.707449204163616 ], [ 146.384604452706697, -38.719916284301675 ], [ 146.406831378451557, -38.722364035966564 ], [ 146.406536309030542, -38.718014005918057 ], [ 146.418101118418377, -38.706059766704271 ], [ 146.438889765474016, -38.699823438212078 ], [ 146.443850545186962, -38.694908318551192 ], [ 146.466428240346914, -38.70169808027412 ], [ 146.470826089954926, -38.698481000582213 ], [ 146.493274606197645, -38.696540672244588 ], [ 146.493446597234936, -38.687751622203656 ], [ 146.504136425926589, -38.682879442971831 ], [ 146.504575484725933, -38.692114493061126 ], [ 146.519930221695432, -38.694583284223292 ], [ 146.522023752018328, -38.688870964344808 ], [ 146.538996619000159, -38.68887897561406 ], [ 146.539004577924572, -38.697697975668611 ], [ 146.551214655012615, -38.703775956619566 ], [ 146.555842495344223, -38.69430696690813 ], [ 146.566123743558194, -38.693965957676134 ], [ 146.560116385783061, -38.684476997168041 ], [ 146.5631094259181, -38.679006967358745 ], [ 146.5804697025373, -38.681438938674702 ], [ 146.587511681882205, -38.676556999172938 ], [ 146.599035639478018, -38.679482980055518 ], [ 146.607163718534053, -38.675392920640661 ], [ 146.637905543707348, -38.67022793291931 ], [ 146.648979492485978, -38.664147983715225 ], [ 146.651989473094574, -38.654813983884551 ], [ 146.646231634386794, -38.652601963437675 ], [ 146.652813534343807, -38.643413953876717 ], [ 146.668193420113226, -38.655685985110118 ], [ 146.670642498574182, -38.664698945349862 ], [ 146.692863473282102, -38.675691997092493 ], [ 146.703810372663042, -38.664911997852471 ], [ 146.71138043108084, -38.66685895843591 ], [ 146.716356370924331, -38.66094794877548 ], [ 146.712780503168005, -38.647843938425062 ], [ 146.722335611073248, -38.651105979166822 ], [ 146.728551379053812, -38.658568979682293 ], [ 146.739206636732604, -38.662077980509352 ], [ 146.749398605049123, -38.661069971274159 ], [ 146.751184555486276, -38.654944941371731 ], [ 146.768354403264965, -38.648265962630653 ], [ 146.785754650423087, -38.64630396393715 ], [ 146.79007752034974, -38.640685974230443 ], [ 146.786270501873929, -38.633790983899466 ], [ 146.791201472161163, -38.624374004215568 ], [ 146.815576679399896, -38.611776985987873 ], [ 146.842957554037667, -38.615969018094212 ], [ 146.847779414353113, -38.606510998402825 ], [ 146.869150460453994, -38.607476960035221 ], [ 146.880728398778444, -38.604470970898667 ], [ 146.89704356415649, -38.618494952228524 ], [ 146.887151525702677, -38.620139971484448 ], [ 146.883539624571398, -38.63443394129694 ], [ 146.931971510769728, -38.596002974756431 ], [ 146.975790338231008, -38.554130997850564 ], [ 147.019485405353095, -38.515323570961449 ], [ 147.067253571953842, -38.47510599438435 ], [ 147.111969608454615, -38.440161687613291 ], [ 147.126103317219702, -38.43018048864208 ], [ 147.172959023847483, -38.391412172023124 ], [ 147.239106648570839, -38.341086926838059 ], [ 147.271924856184484, -38.314387229222525 ], [ 147.328268701881086, -38.270380113337396 ], [ 147.37866351821225, -38.229781237020561 ], [ 147.415165775402784, -38.20169958970277 ], [ 147.467164801744076, -38.159134723516694 ], [ 147.508008038547501, -38.128401236536568 ], [ 147.542575325674591, -38.103807719106371 ], [ 147.628566728182136, -38.045707315538657 ], [ 147.677120483690345, -38.015173349197582 ], [ 147.706095640880449, -37.998039811392353 ], [ 147.75127570625682, -37.973327624833765 ], [ 147.788392802187957, -37.955234257680914 ], [ 147.850604194797739, -37.929535692494298 ], [ 147.950011752240329, -37.89467798025666 ], [ 147.979282417900208, -37.889497892581822 ], [ 148.002333475086687, -37.880728874385817 ], [ 148.051894448363669, -37.867186828305094 ], [ 148.073811485017842, -37.864117800059837 ], [ 148.120185719145468, -37.848310243720306 ], [ 148.179183651247371, -37.831622468411183 ], [ 148.217779955782049, -37.823073031502425 ], [ 148.259739179665871, -37.815172574878574 ], [ 148.289620595128071, -37.810975277296258 ], [ 148.366208313023833, -37.803935483532761 ], [ 148.460345517359457, -37.801423241269397 ], [ 148.520165507197333, -37.801461926214536 ], [ 148.550824041741151, -37.803376758766554 ], [ 148.582130526609035, -37.802003451355326 ], [ 148.611085931469319, -37.803720233772097 ], [ 148.626039828350173, -37.808124125043832 ], [ 148.645688505537095, -37.804188916654603 ], [ 148.673534171121617, -37.801867648960638 ], [ 148.704560775848535, -37.801958351550716 ], [ 148.726193661278813, -37.808751183401554 ], [ 148.737926469591969, -37.806475064368364 ], [ 148.749192158938598, -37.797023875251178 ], [ 148.767406896451746, -37.792516686747881 ], [ 148.80873840026527, -37.786404230175073 ], [ 148.841893134903643, -37.784518802948334 ], [ 148.870340859886824, -37.786028485351231 ], [ 148.884155777024887, -37.789945326539495 ], [ 148.889814706478631, -37.786869276996761 ], [ 148.92580125111715, -37.781437899997307 ], [ 149.046000550998457, -37.779914600162485 ], [ 149.124231388137957, -37.777273806798988 ], [ 149.175993779270499, -37.7782081112206 ], [ 149.194734555933962, -37.77947990283004 ], [ 149.213463213044804, -37.777473664419013 ], [ 149.236707948908901, -37.779038416418857 ], [ 149.251617716019496, -37.781781337713809 ], [ 149.268776691646963, -37.792624139254038 ], [ 149.26515392152379, -37.798019088977576 ], [ 149.275394759017445, -37.803721099892357 ], [ 149.288809128741832, -37.789129170951043 ], [ 149.309673586103742, -37.782657972702232 ], [ 149.332204152914528, -37.778180584611171 ], [ 149.366354717589161, -37.775011127531457 ], [ 149.385785383903055, -37.778009849225647 ], [ 149.409899030494159, -37.773223461276125 ], [ 149.431026836365788, -37.777364163127636 ], [ 149.4390896857374, -37.772041993790779 ], [ 149.453224483661046, -37.769820774999147 ], [ 149.473701240123432, -37.770464466775671 ], [ 149.483444177836674, -37.7751613376495 ], [ 149.494768966851922, -37.768453108588211 ], [ 149.496597758567532, -37.753741018653095 ], [ 149.512186396817668, -37.747392749964526 ], [ 149.520929206368351, -37.739970570675865 ], [ 149.546981623502091, -37.728974112868165 ], [ 149.577114119261637, -37.72300165545014 ], [ 149.58958295720555, -37.722721506533581 ], [ 149.594474905883345, -37.726347466982638 ], [ 149.605967476629303, -37.706960187860048 ], [ 149.6166011657225, -37.700600008746171 ], [ 149.651559441314731, -37.690055451728554 ], [ 149.674721028015142, -37.685832103724813 ], [ 149.677926749087874, -37.674195973930722 ], [ 149.688795239544561, -37.657736754775854 ], [ 149.706422698555031, -37.64356441622752 ], [ 149.718190009925081, -37.619446097103527 ], [ 149.720144840938502, -37.609761997212779 ], [ 149.729739450755346, -37.599501827987588 ], [ 149.739286021237405, -37.584500598728177 ], [ 149.765505358375947, -37.573565270957751 ], [ 149.761416300041986, -37.566461250553445 ], [ 149.781599668292955, -37.554791062250388 ], [ 149.80450315550442, -37.547370884215297 ], [ 149.822371802921566, -37.544529725768584 ], [ 149.845228358964619, -37.54560759778753 ], [ 149.867776815908826, -37.54057638974222 ], [ 149.889929422188345, -37.54080826169772 ], [ 149.906614189126145, -37.542852193183847 ], [ 149.915938809048129, -37.532272003939703 ], [ 149.924775498405211, -37.526334874682554 ], [ 149.940779026648698, -37.51984167605594 ], [ 149.962357573752513, -37.514884547933754 ], [ 149.976197552811584, -37.505146559097 ], [ 149.79419911285035, -37.434440922584841 ], [ 149.592099147182893, -37.355666414401767 ], [ 149.35627654882768, -37.262751703384083 ], [ 149.20615590157891, -37.203603780120247 ], [ 148.992561188140428, -37.118461561397119 ], [ 148.798387980317074, -37.04088854453385 ], [ 148.679959976027277, -36.993053014319599 ], [ 148.523574159881889, -36.929885520917807 ], [ 148.354092336473627, -36.861227126503373 ], [ 148.194951210780516, -36.796240113070233 ], [ 148.186032991213125, -36.804408172397004 ], [ 148.169973865291638, -36.792903081015638 ], [ 148.156122877917483, -36.790062539870931 ], [ 148.144333269130982, -36.79577698894991 ], [ 148.12651438193916, -36.796665947508721 ], [ 148.120157531801311, -36.806067157053725 ], [ 148.108826064797512, -36.796988536075709 ], [ 148.104721277537379, -36.780495275636 ], [ 148.11287021775442, -36.768114596216591 ], [ 148.121649796748358, -36.764674786906568 ], [ 148.120920767968499, -36.755892046790464 ], [ 148.132659566681951, -36.750834857710473 ], [ 148.139099367965031, -36.73220076811252 ], [ 148.149103987893625, -36.719729878844319 ], [ 148.154562856939918, -36.720223469291142 ], [ 148.16567748624604, -36.71128255013673 ], [ 148.171873875392663, -36.710020020632513 ], [ 148.173852496105241, -36.701766800739868 ], [ 148.185119595466432, -36.692204861594647 ], [ 148.185070446597365, -36.683257041532507 ], [ 148.189760426826012, -36.675339681862852 ], [ 148.199416325853093, -36.670549002618067 ], [ 148.197584496878022, -36.664761852431226 ], [ 148.208192146842578, -36.651273923207746 ], [ 148.219552328975283, -36.619545303927296 ], [ 148.210896701271025, -36.612467413175622 ], [ 148.217449151914536, -36.598840363621008 ], [ 148.203580155432149, -36.588758462425034 ], [ 148.19002909817641, -36.584427541293174 ], [ 148.189608119225824, -36.576590151207839 ], [ 148.178472640639512, -36.579749130322078 ], [ 148.165126482999625, -36.578215699226476 ], [ 148.158802125601227, -36.565617788630206 ], [ 148.151771547324415, -36.56096203802845 ], [ 148.133415669563362, -36.566908306576238 ], [ 148.124453213006859, -36.550967635744904 ], [ 148.133475262959024, -36.539606226403151 ], [ 148.139820733677055, -36.525590676827029 ], [ 148.131887646108652, -36.516402086122959 ], [ 148.128398418370608, -36.502782865750888 ], [ 148.118999650932523, -36.494435964933736 ], [ 148.12623924101419, -36.484357435455401 ], [ 148.122434073288048, -36.47103312505962 ], [ 148.124721583689819, -36.464827215204707 ], [ 148.110515996956138, -36.457041854001496 ], [ 148.101662958385049, -36.457069363283935 ], [ 148.087718931278374, -36.451935632120545 ], [ 148.086907173875943, -36.432058411924928 ], [ 148.076751847179565, -36.418651031014981 ], [ 148.06073412010528, -36.415926679701002 ], [ 148.054738071995416, -36.408483489167395 ], [ 148.057918212456315, -36.400609379373094 ], [ 148.049680154005699, -36.398838968695379 ], [ 148.043417618095702, -36.373935718026303 ], [ 148.037840899946957, -36.366233397525271 ], [ 148.055274221267439, -36.33279412871552 ], [ 148.049199513951123, -36.318982658133905 ], [ 148.035123757224085, -36.310820686942954 ], [ 148.042732806834579, -36.304050047513378 ], [ 148.037478538727584, -36.295554817033157 ], [ 148.039803199302099, -36.287862167170552 ], [ 148.035432521059704, -36.279303706761326 ], [ 148.03348541311459, -36.265164336511333 ], [ 148.038942242655992, -36.261769686929895 ], [ 148.036010104232531, -36.252793556634124 ], [ 148.028845666092479, -36.247031316017654 ], [ 148.034778546799544, -36.233548046408359 ], [ 148.02694705898918, -36.225965795726083 ], [ 148.040612019149336, -36.206847486704341 ], [ 148.035075941754627, -36.192878476165319 ], [ 148.025475124139035, -36.185993585344718 ], [ 148.021895065822321, -36.176959014996328 ], [ 148.03123374585698, -36.164502375668498 ], [ 148.024826607514825, -36.159353215117257 ], [ 148.034310187381436, -36.148081315809002 ], [ 148.031434308552861, -36.142287175538613 ], [ 148.014066611927831, -36.13741789410453 ], [ 148.004372033152066, -36.140078973339953 ], [ 148.003371014227838, -36.132608213210062 ], [ 147.990785057704016, -36.120656972116727 ], [ 147.995995799686739, -36.097660712385412 ], [ 147.980368023566967, -36.086339571051496 ], [ 147.986663743375004, -36.079691011514953 ], [ 147.991310584540571, -36.064095221786708 ], [ 147.999198353970627, -36.058469182385494 ], [ 147.997576755539455, -36.047752762184146 ], [ 147.971555810297133, -36.042757580054698 ], [ 147.949304913432826, -36.046128628286318 ], [ 147.937672835743513, -36.042386167326391 ], [ 147.923376058089417, -36.041838626174012 ], [ 147.923822139576743, -36.029039496125485 ], [ 147.912063821688804, -36.027081325168389 ], [ 147.910846532484015, -36.022138785038095 ], [ 147.916916252892463, -36.010832505450857 ], [ 147.912795025413288, -35.995498255018838 ], [ 147.898676917259024, -35.998802083907634 ], [ 147.884699959487108, -35.998778542786631 ], [ 147.872719172338748, -35.990996461775147 ], [ 147.861450764477837, -35.988147420853821 ], [ 147.849445596214395, -35.989586509902345 ], [ 147.832110860128324, -35.980050388452881 ], [ 147.817503352492281, -35.979727627283275 ], [ 147.811205074998668, -35.967285696698106 ], [ 147.796445307765538, -35.96381992549685 ], [ 147.777040120274364, -35.968615093980553 ], [ 147.757546495038071, -35.954829512336168 ], [ 147.741297377424729, -35.956476791053305 ], [ 147.728576750528532, -35.947500849982063 ], [ 147.717375352700145, -35.944258009070033 ], [ 147.717761203325381, -35.938545979063029 ], [ 147.708419846013811, -35.928531578254585 ], [ 147.686612608265506, -35.938658826589766 ], [ 147.680014988622929, -35.944426166104279 ], [ 147.672298610079537, -35.942517465479618 ], [ 147.653720052841436, -35.944136084017607 ], [ 147.642295323961321, -35.949965133151125 ], [ 147.63834660319651, -35.961598912915171 ], [ 147.620115765361589, -35.967767001513181 ], [ 147.605465336547638, -35.977363250418044 ], [ 147.596808818035271, -35.976460299728068 ], [ 147.59409789926417, -35.969794569469997 ], [ 147.58233225138045, -35.967773098527594 ], [ 147.574890891685698, -35.975145547988831 ], [ 147.583889588995191, -35.985657628768337 ], [ 147.569288290646341, -35.991325897653333 ], [ 147.555251071468177, -36.003196506624462 ], [ 147.525901518180746, -35.986179014200417 ], [ 147.515235881097368, -35.975973953293924 ], [ 147.523508891516173, -35.961381743848797 ], [ 147.512373043180787, -35.962306672978691 ], [ 147.498607517238952, -35.946628841793 ], [ 147.481257839720769, -35.949003940445529 ], [ 147.478956760832205, -35.942731930223502 ], [ 147.464078043037205, -35.944123959064797 ], [ 147.454426353689939, -35.951584988356828 ], [ 147.456161412680075, -35.957766008533611 ], [ 147.431046797250843, -35.952981016533592 ], [ 147.404270102635451, -35.943549094375506 ], [ 147.392722493234601, -35.954047223541643 ], [ 147.391592881064525, -35.973917293584122 ], [ 147.383685012513041, -35.972339312955704 ], [ 147.360766634204111, -35.988983601275443 ], [ 147.353262924058157, -36.000362750764758 ], [ 147.354978032636438, -36.010073850962414 ], [ 147.348808173269902, -36.013058920500711 ], [ 147.346073422386524, -36.024234110360865 ], [ 147.352249460447439, -36.032280130895479 ], [ 147.3439227606234, -36.04206036031028 ], [ 147.331620071911004, -36.047827549389083 ], [ 147.329229241523507, -36.054345669245578 ], [ 147.318017482614721, -36.060307868411343 ], [ 147.306674624801275, -36.057176977507694 ], [ 147.300287487229923, -36.045263886932446 ], [ 147.285651540237495, -36.039629005757156 ], [ 147.280267680684631, -36.043149115361764 ], [ 147.263609703810857, -36.03925123404202 ], [ 147.250349945675623, -36.041446423027118 ], [ 147.242231987320054, -36.038517492378055 ], [ 147.226110378812109, -36.047789811188899 ], [ 147.215139530700242, -36.046677950331578 ], [ 147.204333702056033, -36.049876119515794 ], [ 147.18389678668305, -36.038344177858832 ], [ 147.161593901110876, -36.031041316087183 ], [ 147.154920051635798, -36.035689465602275 ], [ 147.137179095305555, -36.028611604186615 ], [ 147.127869177970666, -36.018564673402651 ], [ 147.128190088790632, -36.011105623378427 ], [ 147.123135031211319, -35.997303562898075 ], [ 147.1135891523586, -36.000560712183812 ], [ 147.104735451656779, -36.018722011621065 ], [ 147.09721959240801, -36.022600191067831 ], [ 147.10030077037959, -36.035754241391345 ], [ 147.095450029179545, -36.052697471129058 ], [ 147.085094180868936, -36.052451640330538 ], [ 147.074529471207427, -36.06407784959422 ], [ 147.068282502619184, -36.060566889090964 ], [ 147.059520692456061, -36.074026948505875 ], [ 147.063025700907758, -36.082479138830564 ], [ 147.052282871694388, -36.090530318058029 ], [ 147.048685030727427, -36.103782437868531 ], [ 147.035289331584892, -36.114900606913082 ], [ 147.022782185345108, -36.09988217585537 ], [ 147.013189107202663, -36.097169805102197 ], [ 147.016183117615867, -36.089483855281351 ], [ 146.98898901226795, -36.087052923182398 ], [ 146.978374923321013, -36.092672042406981 ], [ 146.972594565477237, -36.082100221895615 ], [ 146.958918097320861, -36.085151080870048 ], [ 146.950579827579446, -36.094477530294029 ], [ 146.945687395927592, -36.115503730057952 ], [ 146.933238358481134, -36.110755479076481 ], [ 146.912025972418348, -36.106227697428892 ], [ 146.901936496724289, -36.083034586508177 ], [ 146.890407498001679, -36.088017575662668 ], [ 146.880562019643293, -36.087511064909876 ], [ 146.872957952464134, -36.0736684142407 ], [ 146.848719024869979, -36.086592042482572 ], [ 146.836352637367895, -36.082174751514451 ], [ 146.825768718311366, -36.088760850754198 ], [ 146.816660631410542, -36.074564779970345 ], [ 146.814473872985104, -36.063935299734958 ], [ 146.804153335292654, -36.058291598915559 ], [ 146.795653966758294, -36.057423028265852 ], [ 146.776927979474067, -36.059980596864676 ], [ 146.760215592369747, -36.058155425588467 ], [ 146.750408033573024, -36.06141092486839 ], [ 146.750633464780577, -36.050559364814411 ], [ 146.730525168692509, -36.044616173256664 ], [ 146.732363639959203, -36.030967583306115 ], [ 146.727235801258672, -36.026806712891776 ], [ 146.716633422997148, -36.026492832089716 ], [ 146.703438684253911, -36.034039201144111 ], [ 146.682658817029193, -36.038972379610854 ], [ 146.67481914024458, -36.021829938908468 ], [ 146.670227590289755, -36.027900298602667 ], [ 146.656857752606811, -36.026415197587269 ], [ 146.650817054239013, -36.02060539709511 ], [ 146.65087346569706, -36.007722857015011 ], [ 146.640132097234556, -36.009365366218603 ], [ 146.626555960852301, -35.99671845511628 ], [ 146.617492062592305, -35.994207514419585 ], [ 146.607826155034786, -35.986358533643141 ], [ 146.615308984211424, -35.983037444182635 ], [ 146.607999026331356, -35.974692443579677 ], [ 146.594550408525436, -35.974364612569367 ], [ 146.569597221972231, -35.979269990732874 ], [ 146.56341832414131, -35.968868300202395 ], [ 146.549586463692037, -35.992444209322429 ], [ 146.531605777743636, -35.982142367911493 ], [ 146.532437738324461, -35.975823337932255 ], [ 146.52656979987799, -35.970407367458613 ], [ 146.511968992925119, -35.964165496328086 ], [ 146.501040134611088, -35.964760595516914 ], [ 146.496327234408454, -35.973259655221241 ], [ 146.500437203188596, -35.978225635560136 ], [ 146.488439423792585, -35.989943774742656 ], [ 146.476128536610787, -35.982481853776889 ], [ 146.456645651520944, -35.966651932223449 ], [ 146.447674733145163, -35.965010971545652 ], [ 146.445170822452269, -35.974743021423237 ], [ 146.436371864770308, -35.966690040716664 ], [ 146.426004966750753, -35.963872099928253 ], [ 146.425198965884022, -35.972738099926453 ], [ 146.402967987653938, -35.98876719838173 ], [ 146.398505057553763, -35.996047248098428 ], [ 146.398322156240113, -36.008008008163081 ], [ 146.387540298040705, -36.007411137360045 ], [ 146.380863738536675, -36.012559286899098 ], [ 146.379599186994426, -36.028113796907107 ], [ 146.386846974849334, -36.036828917500941 ], [ 146.366902066572578, -36.050085626110551 ], [ 146.361012658338467, -36.042801445627163 ], [ 146.347220561059999, -36.038336894577931 ], [ 146.345830492288684, -36.029369904416569 ], [ 146.330929734990747, -36.026659783297767 ], [ 146.327033284645893, -36.035344483066709 ], [ 146.329598223389695, -36.042874403305326 ], [ 146.308952507108614, -36.03935860175833 ], [ 146.304866117328032, -36.043281961482485 ], [ 146.291062260428305, -36.035438580413498 ], [ 146.292099161438642, -36.024899610421102 ], [ 146.288240213127068, -36.015342680074269 ], [ 146.276396484979301, -36.01582630920494 ], [ 146.272767584358093, -36.026629449008276 ], [ 146.256318688496663, -36.01326479771042 ], [ 146.243987688865673, -36.027771236898381 ], [ 146.221069032274272, -36.030314115231285 ], [ 146.211052034044798, -36.028905174486844 ], [ 146.205387424292894, -36.034881254110275 ], [ 146.198085956021373, -36.029915723542373 ], [ 146.185982216622989, -36.042057242734423 ], [ 146.178094018476401, -36.036817572122331 ], [ 146.173879601053955, -36.019713231702056 ], [ 146.154686093543631, -36.025146160332824 ], [ 146.14167779658797, -36.016585079325772 ], [ 146.13369184750249, -36.019945458764099 ], [ 146.124472269613818, -36.014288948053768 ], [ 146.117918970252362, -36.018061357599919 ], [ 146.107684122311127, -36.01435544682883 ], [ 146.095553304127975, -36.01560165595226 ], [ 146.095546333612305, -36.020279785982275 ], [ 146.057729220506673, -36.01303078318081 ], [ 146.056021182365441, -35.99865937296277 ], [ 146.046732383398108, -36.002868522314706 ], [ 146.038104554997119, -36.000969481675178 ], [ 146.031493566751806, -35.994700411153943 ], [ 146.020064877903053, -36.000972490364902 ], [ 146.01732492775389, -36.006344790201048 ], [ 146.006768099780771, -36.00338165941568 ], [ 146.001824200042876, -36.00824792908881 ], [ 145.986700521932136, -36.013244178025033 ], [ 145.967777485796717, -36.005824576606194 ], [ 145.95215287988168, -35.99152398538245 ], [ 145.951019531567709, -35.9777907052109 ], [ 145.944696383489998, -35.969527984699816 ], [ 145.934630504766091, -35.972679143992934 ], [ 145.924343937340723, -35.964275343195126 ], [ 145.914895618834038, -35.964529062514757 ], [ 145.908013471140009, -35.953551951946544 ], [ 145.894432403360128, -35.953236430965134 ], [ 145.87986114521766, -35.957712389944469 ], [ 145.870569826958388, -35.955462699260757 ], [ 145.849003848931005, -35.969245227799192 ], [ 145.859319037018281, -35.971552118556083 ], [ 145.844266278198575, -35.982992137548244 ], [ 145.81786942252873, -35.982298565647774 ], [ 145.80845020381858, -35.984403054985656 ], [ 145.793450576410322, -35.98280422389972 ], [ 145.793202357446688, -35.973619723822061 ], [ 145.776889140205014, -35.972428312645683 ], [ 145.778217241312689, -35.96023045266125 ], [ 145.763971853054869, -35.965336791674872 ], [ 145.756871174956814, -35.958334531121267 ], [ 145.74697037592361, -35.964144060451225 ], [ 145.733505589504801, -35.951083679403972 ], [ 145.726188120388088, -35.953819058899263 ], [ 145.716135292403123, -35.950155488157861 ], [ 145.726306601613004, -35.942298688832615 ], [ 145.72146265314106, -35.935368508441634 ], [ 145.71303383432496, -35.936973397850615 ], [ 145.706462215910761, -35.932079587349961 ], [ 145.696175867352451, -35.934068956629609 ], [ 145.697714838111239, -35.924727716678362 ], [ 145.688442329779548, -35.923094246006961 ], [ 145.685368439457676, -35.930678615837465 ], [ 145.673870591825334, -35.925879864987486 ], [ 145.667165174363817, -35.912312164421778 ], [ 145.661533895260163, -35.912402784021758 ], [ 145.65883958674317, -35.902636103766419 ], [ 145.639451710786943, -35.894015682332132 ], [ 145.632220602526246, -35.888641521783484 ], [ 145.624990066527261, -35.862152591097249 ], [ 145.608498608291768, -35.87041940998126 ], [ 145.59805225076849, -35.862959389192028 ], [ 145.588700992314472, -35.862552298526829 ], [ 145.59246532317465, -35.848847778704027 ], [ 145.582406224828645, -35.848486097989237 ], [ 145.574538077243545, -35.837700767361845 ], [ 145.563708939630459, -35.831621546556001 ], [ 145.557999102062098, -35.817407706059385 ], [ 145.532396057506418, -35.804845264168478 ], [ 145.526619518052968, -35.808416663784072 ], [ 145.521327817814779, -35.818638173477446 ], [ 145.503549561598078, -35.809880532166616 ], [ 145.494307052646718, -35.813969481542067 ], [ 145.471527686584295, -35.811308619921149 ], [ 145.469096716247776, -35.818161829794896 ], [ 145.460215606715423, -35.82719932922938 ], [ 145.450337928887791, -35.821665848499038 ], [ 145.4475683083175, -35.831247888366995 ], [ 145.442298658699826, -35.835629268025443 ], [ 145.420259713033118, -35.828135116429763 ], [ 145.411248283707039, -35.83545215584563 ], [ 145.410334312445741, -35.848769725868415 ], [ 145.404366053186322, -35.850839825463623 ], [ 145.387156306028402, -35.850128794253628 ], [ 145.37456414706304, -35.859508913433601 ], [ 145.369975737929252, -35.85829477310476 ], [ 145.352402479966656, -35.865782071925224 ], [ 145.341491352081789, -35.862371631140952 ], [ 145.324761285996573, -35.850754049897766 ], [ 145.307478637756986, -35.86045123875612 ], [ 145.296857389459007, -35.860519888016746 ], [ 145.291741830985586, -35.853824907616954 ], [ 145.284152521919651, -35.856558697106557 ], [ 145.271522415137269, -35.845261286154432 ], [ 145.266453895187624, -35.852556795849608 ], [ 145.257724477007514, -35.84859529521718 ], [ 145.264074146623301, -35.842515855618771 ], [ 145.260745877858682, -35.835836365343951 ], [ 145.246521250715574, -35.830398994320518 ], [ 145.234619612690096, -35.829818283490724 ], [ 145.224452514026268, -35.832675462804168 ], [ 145.222789633272896, -35.842437782752498 ], [ 145.196976798206521, -35.83496420091555 ], [ 145.182826360469818, -35.835090229937222 ], [ 145.179226390354245, -35.841751329731643 ], [ 145.168358412029079, -35.842462878984975 ], [ 145.148414016165731, -35.833561977549522 ], [ 145.134645228473772, -35.832672426593717 ], [ 145.134235669067778, -35.827594356532394 ], [ 145.110316543288832, -35.824005204860569 ], [ 145.098620924715902, -35.828386184083904 ], [ 145.090916045206257, -35.835611413600816 ], [ 145.085716356893414, -35.827413033189814 ], [ 145.072867868926835, -35.82774382230874 ], [ 145.069012808793502, -35.835019632091232 ], [ 145.047108162106838, -35.83708019060078 ], [ 145.02032702446553, -35.855987948887815 ], [ 145.004790217101856, -35.854706677815685 ], [ 144.979350250827423, -35.858341536099601 ], [ 144.968184871855783, -35.865829115385566 ], [ 144.975006878941429, -35.883420235965865 ], [ 144.964751449310683, -35.895890145346478 ], [ 144.967235948384712, -35.900978015549171 ], [ 144.961003058270052, -35.911849725194223 ], [ 144.952883629100256, -35.916520824670449 ], [ 144.949018088130401, -35.931985444507134 ], [ 144.955299465606799, -35.946599775030506 ], [ 144.956828823795888, -35.961744995233126 ], [ 144.945395275501625, -35.963151284462228 ], [ 144.930910547291063, -35.968540653509748 ], [ 144.926262597505939, -35.973756783226918 ], [ 144.923612766388885, -35.988754633143628 ], [ 144.929700595213461, -35.990584713570207 ], [ 144.936227003232517, -35.999528734072918 ], [ 144.946456930997641, -36.00510852480658 ], [ 144.946343760223186, -36.012781924848568 ], [ 144.958394357563151, -36.019604175714974 ], [ 144.965632565466734, -36.028516056266831 ], [ 144.967814263710068, -36.042064976503561 ], [ 144.982062870754248, -36.048264557517193 ], [ 144.986882688310544, -36.06428254795037 ], [ 144.982411528283933, -36.071544777691692 ], [ 144.964734090351385, -36.079322196534306 ], [ 144.946489183007884, -36.082318875308552 ], [ 144.936552895292408, -36.075856394589238 ], [ 144.932620056843973, -36.067036014264119 ], [ 144.913629310343907, -36.063038152944785 ], [ 144.888580694362361, -36.063554851244291 ], [ 144.87482965720983, -36.057614770271599 ], [ 144.863466278904241, -36.059098249509745 ], [ 144.863914097916535, -36.067984949597601 ], [ 144.842045679941918, -36.082871538210618 ], [ 144.843377048300056, -36.096722668390363 ], [ 144.824157240830488, -36.102549507125936 ], [ 144.80579290163567, -36.123829286020616 ], [ 144.797089604101103, -36.11363721536636 ], [ 144.786873864326054, -36.127667694766586 ], [ 144.777980465546591, -36.129906184180406 ], [ 144.773580587197984, -36.12080083382461 ], [ 144.747593561392478, -36.121215712074545 ], [ 144.743371613348188, -36.108832621710135 ], [ 144.731307554957084, -36.112327690920182 ], [ 144.727114395071027, -36.117899800673861 ], [ 144.718408486934862, -36.11355194005997 ], [ 144.719136838132528, -36.100667180025823 ], [ 144.725237247305245, -36.099034570425765 ], [ 144.715133380254201, -36.086277169663632 ], [ 144.711641870298791, -36.09141136946198 ], [ 144.698031892301685, -36.093512358560723 ], [ 144.684787144667581, -36.091472637658029 ], [ 144.682502415704676, -36.084947807462527 ], [ 144.692397895683769, -36.069338028026188 ], [ 144.687905457239168, -36.061247497672234 ], [ 144.679571288489825, -36.062285417119483 ], [ 144.678544577946894, -36.069259897095627 ], [ 144.652927931649572, -36.073862775407633 ], [ 144.653197533703008, -36.053227195292443 ], [ 144.637470436830682, -36.047627104203031 ], [ 144.625005158408356, -36.052068233397648 ], [ 144.627642966504055, -36.066605043667927 ], [ 144.616759697257606, -36.076646333004909 ], [ 144.608920519721977, -36.064935052405389 ], [ 144.618709610694708, -36.039621842896246 ], [ 144.606079083079607, -36.036359782031042 ], [ 144.583281466519793, -36.039012140526161 ], [ 144.57805912917857, -36.021114310062217 ], [ 144.556776543393852, -36.013634258595452 ], [ 144.553579624993006, -36.00293323831341 ], [ 144.542345706936118, -36.001766277558048 ], [ 144.529760559723911, -35.994390996673239 ], [ 144.520396651088618, -35.995947376060855 ], [ 144.514246694278029, -35.974168935511507 ], [ 144.493359598268029, -35.968205144086369 ], [ 144.481341611341776, -35.95701110321702 ], [ 144.481264251774803, -35.952818193184768 ], [ 144.464433195673308, -35.941160281994222 ], [ 144.43914129077632, -35.931150710255963 ], [ 144.439351391393132, -35.924638550227719 ], [ 144.427333303869318, -35.919352109399213 ], [ 144.422787445517343, -35.910223189039876 ], [ 144.408193188482386, -35.904203668037439 ], [ 144.413776558323491, -35.896725978357559 ], [ 144.412391299529276, -35.886880758202416 ], [ 144.403634351567405, -35.880653017584251 ], [ 144.402405673084701, -35.867412927417483 ], [ 144.405605433309574, -35.859956027580289 ], [ 144.389818825937311, -35.859208396534427 ], [ 144.381439477968399, -35.852410285938248 ], [ 144.384499708056438, -35.846546216101885 ], [ 144.374920540195347, -35.840604805432434 ], [ 144.37258804128092, -35.833469365232638 ], [ 144.375544421706905, -35.824367425368322 ], [ 144.36476670391761, -35.819633874628174 ], [ 144.375732693976175, -35.80119780523053 ], [ 144.37718172440816, -35.79448716528244 ], [ 144.366044996149782, -35.795045944552911 ], [ 144.352413989203257, -35.786426853600339 ], [ 144.352232880342285, -35.775219353515737 ], [ 144.321885346316407, -35.764290011451337 ], [ 144.321647276988415, -35.757876111394097 ], [ 144.309390179629702, -35.751130910546273 ], [ 144.300101311059223, -35.751814969941776 ], [ 144.301193601876321, -35.741744559948032 ], [ 144.296694893022391, -35.737470269625483 ], [ 144.28623359476174, -35.736919218936684 ], [ 144.267925346053062, -35.753766117847867 ], [ 144.247447781781943, -35.729062676349166 ], [ 144.248416152370254, -35.721486256363242 ], [ 144.229949125975196, -35.715051165115895 ], [ 144.215055249409261, -35.704477784075955 ], [ 144.217153209969496, -35.695314334153245 ], [ 144.213595561380572, -35.686750373865728 ], [ 144.195144684436741, -35.685845212657981 ], [ 144.18547745749359, -35.670477251929036 ], [ 144.18021377804709, -35.673473281606093 ], [ 144.1633484709144, -35.671878870499427 ], [ 144.158455663037131, -35.658179920092628 ], [ 144.151593834582656, -35.65363686961755 ], [ 144.153342985040752, -35.646052709681847 ], [ 144.140576807055169, -35.646425968855731 ], [ 144.130483009722582, -35.635676548131286 ], [ 144.117552502748083, -35.625912927229869 ], [ 144.113184145781929, -35.601895666790831 ], [ 144.104924298191946, -35.590711106183363 ], [ 144.06219494640078, -35.576680853330238 ], [ 144.064055036616878, -35.571363643415737 ], [ 144.046555810252926, -35.562753192230709 ], [ 144.047856660681219, -35.556160982271713 ], [ 144.036811522726111, -35.553303231541094 ], [ 144.030302173531993, -35.55575661113766 ], [ 144.012707876513929, -35.554059809993909 ], [ 144.008990566222224, -35.563268429814642 ], [ 143.989392030333704, -35.553179338489088 ], [ 143.999226659511464, -35.545354039070233 ], [ 143.992045361751337, -35.534023628534982 ], [ 143.974334664780116, -35.532008627384492 ], [ 143.970982026397849, -35.520750307096087 ], [ 143.96283398827552, -35.514770406534439 ], [ 143.95898757987905, -35.504467196220737 ], [ 143.948103591969243, -35.500819535499375 ], [ 143.936761323585046, -35.502887304786341 ], [ 143.919113126621454, -35.500652593642471 ], [ 143.912227528274997, -35.494875253164622 ], [ 143.89467732132016, -35.492375492027072 ], [ 143.888331542972793, -35.485690541578464 ], [ 143.879607054218354, -35.487255331031939 ], [ 143.867960846631576, -35.481472010251665 ], [ 143.841477263039394, -35.458609688416189 ], [ 143.827035975680815, -35.45508802747478 ], [ 143.818023478786188, -35.437531856787679 ], [ 143.803126191456982, -35.434443705821558 ], [ 143.793513303502095, -35.429051545176485 ], [ 143.790123454666684, -35.422464194918582 ], [ 143.763850248754835, -35.423568303260978 ], [ 143.758935410349181, -35.414993042894032 ], [ 143.765005199849071, -35.410036373245994 ], [ 143.767911300223574, -35.401165983372216 ], [ 143.746469374829218, -35.388585631933388 ], [ 143.739099965533939, -35.393570821499964 ], [ 143.727037237774994, -35.390195790715836 ], [ 143.708529610553683, -35.392022689559568 ], [ 143.697957203249558, -35.381276568822891 ], [ 143.676877357504623, -35.371738927432901 ], [ 143.667881118992852, -35.371155356862964 ], [ 143.665840728259383, -35.382444246808141 ], [ 143.657623119338268, -35.384910336307421 ], [ 143.653880159001915, -35.394866086136936 ], [ 143.642345140264979, -35.401024105452272 ], [ 143.629314143172508, -35.392174634576591 ], [ 143.634646042846839, -35.386568094874754 ], [ 143.619368465640463, -35.382748383891311 ], [ 143.613375077215977, -35.376116763472368 ], [ 143.615969927487811, -35.368781623587275 ], [ 143.603021449867867, -35.365394192753733 ], [ 143.597502341753056, -35.354617342337882 ], [ 143.584459834635027, -35.345989821465317 ], [ 143.581999455482872, -35.341096271279525 ], [ 143.566844477660027, -35.343633480348494 ], [ 143.562267308941415, -35.337696970023835 ], [ 143.562889230674358, -35.318002889934391 ], [ 143.568077840772844, -35.308069370193849 ], [ 143.576737430240428, -35.298990140676004 ], [ 143.584427540899071, -35.278776221025169 ], [ 143.576020813471672, -35.265469300412555 ], [ 143.574082664613655, -35.25649252023279 ], [ 143.565322467934095, -35.23570499954959 ], [ 143.573821576664074, -35.234865820075271 ], [ 143.580917817019639, -35.218923960414905 ], [ 143.579491907722399, -35.213789480292199 ], [ 143.563933301224324, -35.202613689246668 ], [ 143.54642402355654, -35.207378568184559 ], [ 143.543175493229199, -35.216469018041259 ], [ 143.529491255091074, -35.219788137209576 ], [ 143.519791837283719, -35.212707176558943 ], [ 143.505157199501326, -35.213811155654973 ], [ 143.492327930974369, -35.219884014896564 ], [ 143.471487914334716, -35.219280253597738 ], [ 143.466136435602806, -35.214729303235806 ], [ 143.46488106685689, -35.20327867308314 ], [ 143.446417631012991, -35.189911161850652 ], [ 143.424651364476119, -35.189749790501345 ], [ 143.417861405086882, -35.194814900114238 ], [ 143.396386328647452, -35.193100538775361 ], [ 143.386976101022924, -35.183449578131182 ], [ 143.393913380514618, -35.177003238517514 ], [ 143.38296758250587, -35.174189897823275 ], [ 143.386390323367351, -35.158860097934465 ], [ 143.382968164291469, -35.154680587695914 ], [ 143.391147843727452, -35.146702118148795 ], [ 143.386591435323083, -35.137141447804972 ], [ 143.376657237636493, -35.129021107138819 ], [ 143.374057168606498, -35.122905326938451 ], [ 143.362193091012102, -35.117097366168956 ], [ 143.35771151283393, -35.104894505812993 ], [ 143.349297714128085, -35.105278145297234 ], [ 143.341113576919184, -35.088835764685875 ], [ 143.342834587750332, -35.076729084712625 ], [ 143.339042638927651, -35.07037091443766 ], [ 143.339890270105286, -35.055965104395554 ], [ 143.333235862028488, -35.046357963923271 ], [ 143.325164803632163, -35.04271232340308 ], [ 143.322711324674458, -35.035497533205032 ], [ 143.334883902843814, -35.034536663947272 ], [ 143.333324244577, -35.018174113744195 ], [ 143.338015144530289, -35.010562903982922 ], [ 143.33583670556294, -35.002972863799165 ], [ 143.318116589882266, -34.986103982599154 ], [ 143.323794509612611, -34.97923467290309 ], [ 143.319601321245642, -34.968498912575015 ], [ 143.319744353046161, -34.948391572451946 ], [ 143.328523072411429, -34.940189412937762 ], [ 143.341189920393759, -34.940511433719045 ], [ 143.339386921785689, -34.9282893335279 ], [ 143.342206092172887, -34.919145453641391 ], [ 143.333182424316334, -34.911113553033481 ], [ 143.328250106447598, -34.896124262631773 ], [ 143.322362797763844, -34.891777142241331 ], [ 143.323275948237466, -34.884964902252705 ], [ 143.332294246818265, -34.88503642280763 ], [ 143.342722256019954, -34.875820993388643 ], [ 143.338409967195304, -34.870299733087002 ], [ 143.348689886120951, -34.864397373680909 ], [ 143.345857217424964, -34.854897423444093 ], [ 143.354105678446984, -34.829375313784141 ], [ 143.35199165939099, -34.822599543609385 ], [ 143.359396738716271, -34.817275814030459 ], [ 143.347116281743979, -34.805016933193535 ], [ 143.351553281868007, -34.795991003407288 ], [ 143.345068033356085, -34.790730162973425 ], [ 143.335559694585726, -34.793543602406913 ], [ 143.33079799587918, -34.787453722073991 ], [ 143.315048348162094, -34.789392291118844 ], [ 143.307500980182624, -34.78005053059389 ], [ 143.283669562536772, -34.795201889231699 ], [ 143.273571964665564, -34.789067568572619 ], [ 143.273551135754218, -34.777004578491976 ], [ 143.263187097678781, -34.773586017834887 ], [ 143.252661189232981, -34.774566747197305 ], [ 143.254287939691892, -34.766633127244589 ], [ 143.271407237650806, -34.759636388246349 ], [ 143.26231979977635, -34.751751057638089 ], [ 143.248932691316497, -34.757842806859209 ], [ 143.24294301324025, -34.746812086420391 ], [ 143.229434825301098, -34.747312645598427 ], [ 143.228987874450183, -34.757582195638719 ], [ 143.21908391645735, -34.752418785000145 ], [ 143.221345666913095, -34.743394535078785 ], [ 143.197350122018889, -34.728124963514922 ], [ 143.193553403964899, -34.712966153183785 ], [ 143.169815057038051, -34.719954721784916 ], [ 143.164296708136447, -34.717276111431715 ], [ 143.165406359433177, -34.700793851390635 ], [ 143.161695980268377, -34.697902621146035 ], [ 143.147441991426632, -34.709811910358454 ], [ 143.137240273031466, -34.709630739737982 ], [ 143.133798744331983, -34.701035999472566 ], [ 143.109602388041793, -34.701682798010076 ], [ 143.103940419598956, -34.694072237617107 ], [ 143.090007681129407, -34.701272226821345 ], [ 143.075948133818343, -34.695634325934222 ], [ 143.065526966089209, -34.688310265256497 ], [ 143.05792793646151, -34.697472774858056 ], [ 143.046958218205248, -34.69707153419359 ], [ 143.040050588801421, -34.702497773812809 ], [ 143.03066578103855, -34.693719773189514 ], [ 143.02977972173565, -34.687387303094454 ], [ 143.013870403560276, -34.69478292218534 ], [ 143.008013465250826, -34.685953761774869 ], [ 143.017455544689938, -34.675645812275128 ], [ 143.012594755859737, -34.67095674195177 ], [ 142.990705829562813, -34.667581800613597 ], [ 142.976769061506815, -34.670135509793575 ], [ 142.98243396951753, -34.68272716021648 ], [ 142.976254059455101, -34.694375399922144 ], [ 142.967701441026293, -34.691657529391129 ], [ 142.963346093028321, -34.676595229030845 ], [ 142.958527834197213, -34.671825728710616 ], [ 142.94581889657519, -34.66726882791918 ], [ 142.934218059033981, -34.659814997175658 ], [ 142.924719601408327, -34.649578696540104 ], [ 142.911189323402681, -34.650837435739668 ], [ 142.902094944498145, -34.654488785220522 ], [ 142.899371383669177, -34.668816575152178 ], [ 142.892870303747941, -34.679491944834375 ], [ 142.886463375394243, -34.672071734403389 ], [ 142.874052057211486, -34.673392043672145 ], [ 142.867832799446404, -34.658877513206171 ], [ 142.871915359380097, -34.652355623406486 ], [ 142.864387211281013, -34.643988442903023 ], [ 142.861512213104078, -34.628201112627956 ], [ 142.854347494966561, -34.619603782144907 ], [ 142.839473216926649, -34.623645581286858 ], [ 142.835575968622067, -34.611114820972752 ], [ 142.805378913531626, -34.608608269163611 ], [ 142.802127805673138, -34.58973598884662 ], [ 142.796120855938511, -34.597436238541228 ], [ 142.787953177791792, -34.590686428012887 ], [ 142.785965768704898, -34.583704887849223 ], [ 142.800304346828767, -34.579668618672216 ], [ 142.796442068098116, -34.571935498392371 ], [ 142.809131666994233, -34.561956289078999 ], [ 142.805414818269696, -34.553887648805407 ], [ 142.793080770479349, -34.550453898051693 ], [ 142.781474281014624, -34.565070177460584 ], [ 142.769997792466683, -34.568868846806453 ], [ 142.780550989938405, -34.579165187498745 ], [ 142.756944233579503, -34.579435406104203 ], [ 142.748297515154007, -34.576746525575636 ], [ 142.745524404793343, -34.585910785472173 ], [ 142.76037176227095, -34.588420386365925 ], [ 142.763524021063489, -34.596723836606941 ], [ 142.746450643169652, -34.603046705639628 ], [ 142.732118265684221, -34.599716654771719 ], [ 142.724638647479509, -34.592375044282257 ], [ 142.71482799830946, -34.600429863756936 ], [ 142.703416670335372, -34.597497103065493 ], [ 142.699551820450012, -34.603141312875081 ], [ 142.704213738921055, -34.612480553210972 ], [ 142.697370207567076, -34.640554122992619 ], [ 142.68934232788456, -34.651377242591373 ], [ 142.695441916195222, -34.659957413006602 ], [ 142.709795863619519, -34.663895503877605 ], [ 142.710441862410704, -34.676734983999978 ], [ 142.701875313603409, -34.678387693506323 ], [ 142.689199446152543, -34.67173855271669 ], [ 142.68246046722507, -34.671480132318671 ], [ 142.678935697028663, -34.680139502168316 ], [ 142.682939885388919, -34.691922952481065 ], [ 142.690503643103824, -34.704738873010022 ], [ 142.684831613130768, -34.714690542741685 ], [ 142.696768720795887, -34.720151153479797 ], [ 142.690096631281875, -34.726591543129423 ], [ 142.680953073140785, -34.721596692558933 ], [ 142.675947163475058, -34.726787072298698 ], [ 142.686009781373002, -34.732932582930609 ], [ 142.679527131856219, -34.739072122589683 ], [ 142.666043064372701, -34.734323221766253 ], [ 142.663291275821422, -34.722497371527105 ], [ 142.654954156672858, -34.727732341072034 ], [ 142.631785369789753, -34.73358115975185 ], [ 142.623497011606901, -34.727506519226573 ], [ 142.617862052341536, -34.729204498907812 ], [ 142.61655776179515, -34.737940898888731 ], [ 142.619228349960082, -34.754440719153145 ], [ 142.628033958064691, -34.760465349708227 ], [ 142.636649776954641, -34.757702600194946 ], [ 142.646383994892091, -34.763973080806736 ], [ 142.644445924217735, -34.775324000767426 ], [ 142.632218905374316, -34.784122770108318 ], [ 142.615786877850638, -34.785247259153444 ], [ 142.596087721993314, -34.772927227920711 ], [ 142.576507575180017, -34.771510286767928 ], [ 142.565858187213365, -34.767234456118658 ], [ 142.55675107794346, -34.775360345640927 ], [ 142.550502589971842, -34.763087225196529 ], [ 142.539156851752722, -34.763027934535494 ], [ 142.534384523285439, -34.753829914197553 ], [ 142.525294974201699, -34.759758083707652 ], [ 142.508743687618221, -34.750071292682421 ], [ 142.512738077591393, -34.743056062868504 ], [ 142.499577699980136, -34.739180472078949 ], [ 142.501298140199026, -34.733451682141293 ], [ 142.513051439242759, -34.723108252756084 ], [ 142.509901650541053, -34.713647242511158 ], [ 142.518904789955826, -34.704008552971082 ], [ 142.501311043201071, -34.698164501910924 ], [ 142.513527851877228, -34.691308242575424 ], [ 142.498044925900871, -34.672416701552606 ], [ 142.504107615369719, -34.667541221872533 ], [ 142.513833223928486, -34.666652852431518 ], [ 142.511177225056372, -34.658264212222228 ], [ 142.490824406979158, -34.672983141137436 ], [ 142.479008778775523, -34.673537360456038 ], [ 142.471588890500215, -34.66685551998237 ], [ 142.47203240269954, -34.640110659832693 ], [ 142.465549614193719, -34.634399899419833 ], [ 142.457339465319421, -34.636211488956555 ], [ 142.454156376332492, -34.63010445873234 ], [ 142.464120015154862, -34.625684189279895 ], [ 142.458719436739841, -34.616898778909693 ], [ 142.461589477022699, -34.608280289019227 ], [ 142.467932726526044, -34.602487369348403 ], [ 142.471185146791981, -34.593372639476904 ], [ 142.465994068469911, -34.583088169108791 ], [ 142.472800758073959, -34.575265179451549 ], [ 142.467974439753476, -34.564282069099924 ], [ 142.454794022367963, -34.557577928293107 ], [ 142.448607053125187, -34.559991407951159 ], [ 142.45161432157704, -34.57278234820906 ], [ 142.458401769908164, -34.580041238649365 ], [ 142.449708731014653, -34.582940068165577 ], [ 142.443573372620762, -34.575222127760206 ], [ 142.434753443914957, -34.576133157256564 ], [ 142.423612436776864, -34.562738076525342 ], [ 142.411662488082328, -34.569283455878931 ], [ 142.406379179185564, -34.565936005552345 ], [ 142.410697509565409, -34.553460625719389 ], [ 142.400812611702406, -34.546315625102679 ], [ 142.392504602737489, -34.54935024464406 ], [ 142.376711485894674, -34.540972023680126 ], [ 142.368414878349569, -34.527075103111756 ], [ 142.384006246204933, -34.523797613986964 ], [ 142.398252013990088, -34.523847254807528 ], [ 142.393389265395996, -34.516098714476534 ], [ 142.378721117419929, -34.519096463651991 ], [ 142.376449798383675, -34.511813893473494 ], [ 142.383171697752459, -34.506913913827987 ], [ 142.392218437580851, -34.492256384252357 ], [ 142.375848060120973, -34.492222763310096 ], [ 142.367941260408315, -34.50341108292902 ], [ 142.359999671954824, -34.49965400244799 ], [ 142.361422942723749, -34.487845672452124 ], [ 142.374887331551832, -34.476937943154326 ], [ 142.384169510018353, -34.478077783695802 ], [ 142.380295431505175, -34.467506613403351 ], [ 142.371182302581843, -34.471497902905512 ], [ 142.353976515317896, -34.470647971911333 ], [ 142.353917595839732, -34.464522491867669 ], [ 142.360705135208434, -34.45951018222452 ], [ 142.365184955558817, -34.4470447923999 ], [ 142.36094226660552, -34.442382942125448 ], [ 142.367405276224389, -34.434993322448186 ], [ 142.359931477683915, -34.43136544199487 ], [ 142.352642649839254, -34.419068171495326 ], [ 142.359833829181724, -34.413639721872549 ], [ 142.351848421049112, -34.406061811364083 ], [ 142.356483180805242, -34.400412991593001 ], [ 142.352099831971117, -34.394562191302775 ], [ 142.370658610049276, -34.383276312294562 ], [ 142.368634621494863, -34.369722532088879 ], [ 142.39150609877251, -34.360098853341071 ], [ 142.384370250941629, -34.347321742846098 ], [ 142.396804859798721, -34.338082403500955 ], [ 142.380386762910149, -34.331118562510028 ], [ 142.365141305593369, -34.327106381607074 ], [ 142.348622017349015, -34.336562450720841 ], [ 142.333706759420096, -34.339288759883281 ], [ 142.321616461480261, -34.336922809174858 ], [ 142.313695223320394, -34.32947592867216 ], [ 142.305224384602042, -34.329757788189241 ], [ 142.292449587069399, -34.323747817419111 ], [ 142.283411018248245, -34.326320886919632 ], [ 142.280603159546303, -34.315887696690474 ], [ 142.287406289243961, -34.306905747019833 ], [ 142.286138920300345, -34.296523056878932 ], [ 142.272197551862945, -34.303556306129273 ], [ 142.266592143384059, -34.295609395757012 ], [ 142.254429924435215, -34.305524545128883 ], [ 142.238551356691346, -34.307806604239424 ], [ 142.232471568542337, -34.296736003820364 ], [ 142.248618746900775, -34.286533554672474 ], [ 142.244734248294236, -34.276905704387666 ], [ 142.249571528376265, -34.266914914597301 ], [ 142.241863620293714, -34.258046974099734 ], [ 142.234050151570585, -34.25712625364887 ], [ 142.235712152004595, -34.248773943688306 ], [ 142.243506271034903, -34.246016174113869 ], [ 142.244036892074064, -34.232443974054448 ], [ 142.235815704146233, -34.222625553521553 ], [ 142.243536803452656, -34.216671223921786 ], [ 142.238331045243797, -34.20463859354588 ], [ 142.229138806452994, -34.207072733038871 ], [ 142.228068498059827, -34.189562532862283 ], [ 142.220323019898245, -34.181651672369533 ], [ 142.198587003078757, -34.183482741146946 ], [ 142.183619736014975, -34.175659240246183 ], [ 142.176001486464202, -34.184413109872231 ], [ 142.165946788143572, -34.182728709291574 ], [ 142.159261560090812, -34.171469308838724 ], [ 142.165867910653191, -34.152252949085671 ], [ 142.145724543990042, -34.149163017925559 ], [ 142.13800786427575, -34.16011885756182 ], [ 142.12484387656454, -34.156784486796312 ], [ 142.118623807270495, -34.159805786465242 ], [ 142.120892845757083, -34.17407949668759 ], [ 142.103865538105367, -34.177284635748435 ], [ 142.093066270199728, -34.171902035104431 ], [ 142.082085691795101, -34.172978804493376 ], [ 142.078009773634363, -34.158062254165522 ], [ 142.066638195808594, -34.152750023490988 ], [ 142.068061206339564, -34.143540183510126 ], [ 142.075163635428254, -34.141374463895168 ], [ 142.074490916417545, -34.130478123785323 ], [ 142.061804088740217, -34.125787533041169 ], [ 142.05177928029957, -34.125474652476051 ], [ 142.03409650269748, -34.129275271509037 ], [ 142.028833873917449, -34.124160821180197 ], [ 142.032609504237655, -34.113081331318625 ], [ 142.042148673353864, -34.105986731806738 ], [ 142.035896114804359, -34.099885841415677 ], [ 142.026618495673461, -34.106669000940443 ], [ 142.013318307812767, -34.105367890186891 ], [ 142.016101946492796, -34.116417340415765 ], [ 142.013265156199566, -34.125402450316301 ], [ 141.998196119063834, -34.118502449427567 ], [ 141.993013109631988, -34.121286019156166 ], [ 141.983498091805899, -34.11239841856576 ], [ 141.975032143011276, -34.113512048100375 ], [ 141.969748693305633, -34.119884757847579 ], [ 141.971670081772658, -34.135236778056189 ], [ 141.964171572798364, -34.136756897647842 ], [ 141.956716874355692, -34.131602647198108 ], [ 141.947020326789698, -34.119818676579925 ], [ 141.939760467705554, -34.122246276191625 ], [ 141.93751645685856, -34.137035546164341 ], [ 141.925524358913037, -34.134330825479203 ], [ 141.929790428947882, -34.125776225660033 ], [ 141.922357621002931, -34.114369855171304 ], [ 141.914889552046503, -34.115607164764334 ], [ 141.903697924101124, -34.11135222411454 ], [ 141.885365926639508, -34.114687413119334 ], [ 141.887967865328704, -34.126067923338752 ], [ 141.880268256090687, -34.131272922946188 ], [ 141.862053419102352, -34.12850731191898 ], [ 141.8560737297949, -34.131299811606475 ], [ 141.847813341467543, -34.126207631115982 ], [ 141.842410421791271, -34.132512670858887 ], [ 141.825401704784099, -34.127668089887408 ], [ 141.802115649292091, -34.115863888525261 ], [ 141.787235731879719, -34.111983047680184 ], [ 141.774659013612222, -34.114416887004317 ], [ 141.775189024486792, -34.102391796954151 ], [ 141.762736855682959, -34.111334916328708 ], [ 141.754019537600527, -34.103993415801526 ], [ 141.745360198998014, -34.103090195320313 ], [ 141.735516241300019, -34.093057684714225 ], [ 141.725835302788596, -34.092970954183102 ], [ 141.729878341172565, -34.105564024487677 ], [ 141.717034222397047, -34.114946853846007 ], [ 141.711622533645937, -34.109639313514776 ], [ 141.709884124870598, -34.09751936333975 ], [ 141.704914595777467, -34.095672233055694 ], [ 141.689377747651434, -34.10206479224852 ], [ 141.677456319544461, -34.101211391591889 ], [ 141.653781801921639, -34.117068090405319 ], [ 141.635080254527622, -34.12037688940886 ], [ 141.630054734430018, -34.131414559208189 ], [ 141.632125903427152, -34.140124909378194 ], [ 141.612026545225831, -34.156478118393338 ], [ 141.604282306996112, -34.149076207924146 ], [ 141.599341917205209, -34.156071757702065 ], [ 141.602567375711743, -34.168781107960697 ], [ 141.589928937145061, -34.175254667317667 ], [ 141.590332446694504, -34.180203857372092 ], [ 141.601272064877236, -34.181936427976929 ], [ 141.600932254127088, -34.192146988025634 ], [ 141.588251386375703, -34.188339447312764 ], [ 141.582701606412854, -34.19873709708029 ], [ 141.567980849219538, -34.191816846237494 ], [ 141.558139500707426, -34.19214157570709 ], [ 141.556016030603047, -34.197643395628397 ], [ 141.545051052060614, -34.200569465054862 ], [ 141.536376384092506, -34.19165235452769 ], [ 141.530825354606662, -34.19599626425655 ], [ 141.535942023224607, -34.203603724582749 ], [ 141.533038833058782, -34.211435494477449 ], [ 141.506853916826401, -34.214801863087352 ], [ 141.507880657153009, -34.208592853101905 ], [ 141.517593685826114, -34.206442023611324 ], [ 141.507233448753624, -34.189359062940682 ], [ 141.518750267643185, -34.180896893505853 ], [ 141.510852639107384, -34.177692323059034 ], [ 141.501767161827672, -34.160711822457969 ], [ 141.494646783405415, -34.154499762033772 ], [ 141.485840284584782, -34.156726271574577 ], [ 141.482808514530262, -34.163411771455472 ], [ 141.47296797635147, -34.159436710900373 ], [ 141.466969556805168, -34.165456770617702 ], [ 141.452506379352826, -34.161272269813843 ], [ 141.44403460015829, -34.167670109401534 ], [ 141.432072362737529, -34.158117148697734 ], [ 141.431301573845985, -34.145340898572506 ], [ 141.418745215369029, -34.150578807934735 ], [ 141.411929816464522, -34.149952497566062 ], [ 141.406056197967899, -34.142180327200954 ], [ 141.410304218068376, -34.132444337364078 ], [ 141.40337079953872, -34.127191416958929 ], [ 141.391129260836152, -34.134725466354553 ], [ 141.386471951628096, -34.133730126099387 ], [ 141.383061592976844, -34.123035525847129 ], [ 141.372528804840556, -34.119830025264307 ], [ 141.364401565990107, -34.121098844839509 ], [ 141.36295899680087, -34.11344637471236 ], [ 141.349127839043547, -34.111881173965649 ], [ 141.346414178502158, -34.124334193903103 ], [ 141.331922960161052, -34.131697133180921 ], [ 141.313403303587592, -34.124107662147608 ], [ 141.318427093415949, -34.116293712362918 ], [ 141.31515656427635, -34.111621632158638 ], [ 141.302446456048926, -34.113944521499683 ], [ 141.298550717182962, -34.106946781247188 ], [ 141.283034359842588, -34.103304020401367 ], [ 141.268698852896932, -34.092116829569427 ], [ 141.261026965077519, -34.078965879077465 ], [ 141.24149701774823, -34.083208678074108 ], [ 141.247200837663144, -34.072852688307073 ], [ 141.236723829479018, -34.070095547736159 ], [ 141.226229990868291, -34.072974337201835 ], [ 141.2216736420134, -34.067102356923186 ], [ 141.207202524681549, -34.061175216122351 ], [ 141.198290395140219, -34.073121915732052 ], [ 141.188987575958919, -34.081127325295668 ], [ 141.192694084676759, -34.090528205552175 ], [ 141.179358576801917, -34.089484234844797 ], [ 141.172410359083187, -34.073449554374811 ], [ 141.167832079132239, -34.082068874191215 ], [ 141.157051620628408, -34.084147953639622 ], [ 141.152789371622561, -34.079651293386753 ], [ 141.153330712702854, -34.064274993314143 ], [ 141.137265865403208, -34.061128162452334 ], [ 141.120344727715946, -34.064852791591974 ], [ 141.10754198995042, -34.061248040899649 ], [ 141.097570832319775, -34.050082070306026 ], [ 141.088376323407346, -34.054354549854679 ], [ 141.095567451831016, -34.060653220270964 ], [ 141.097722490890163, -34.068759110436552 ], [ 141.092052691177429, -34.076492020191623 ], [ 141.082802383017395, -34.070897589672803 ], [ 141.085839813102638, -34.063572919783006 ], [ 141.073735564951932, -34.063661679153135 ], [ 141.062436487377482, -34.054433288504597 ], [ 141.047856559072954, -34.061627177793909 ], [ 141.0410503302557, -34.059771907428228 ], [ 141.039464531024606, -34.052756267299863 ], [ 141.043534280986961, -34.044935877459864 ], [ 141.033043363257491, -34.036082476857153 ], [ 141.031920912586742, -34.047338356872793 ], [ 141.025399363399913, -34.049828956550861 ], [ 141.008951316308668, -34.044645535664465 ], [ 141.001724677926148, -34.03781861524552 ], [ 141.002962538926738, -34.021878545204956 ] ] ], [ [ [ 145.160881679345863, -38.471857705058817 ], [ 145.148289909297745, -38.492291874312599 ], [ 145.143889978578017, -38.505716814090285 ], [ 145.125525661444755, -38.509314832843579 ], [ 145.116566742195488, -38.516868882271211 ], [ 145.135139838794856, -38.517697893558655 ], [ 145.156959785836506, -38.50942184501659 ], [ 145.173686822410673, -38.513418846198576 ], [ 145.191828669039779, -38.514677847463091 ], [ 145.207081835775966, -38.519558808550606 ], [ 145.210727924486861, -38.525250868838285 ], [ 145.221703982210784, -38.528109899617611 ], [ 145.240952811202504, -38.506628890824004 ], [ 145.255475938930942, -38.503858861817129 ], [ 145.26323283711173, -38.507756852380723 ], [ 145.287148732568625, -38.510314824062206 ], [ 145.308044937913252, -38.518614915570318 ], [ 145.338599889703914, -38.543089877853966 ], [ 145.346330907174803, -38.553251858456562 ], [ 145.344854926407095, -38.562336908408696 ], [ 145.351567824654921, -38.567235878908164 ], [ 145.363504704337061, -38.551305879646591 ], [ 145.357127685578376, -38.550374829194482 ], [ 145.341458679851485, -38.537297828018524 ], [ 145.344194350831231, -38.524358538130926 ], [ 145.349739210420665, -38.519277458487799 ], [ 145.363716778381814, -38.515332889442007 ], [ 145.357659750236053, -38.50847983897615 ], [ 145.338989123443639, -38.5094715476761 ], [ 145.332904105056116, -38.504786587222149 ], [ 145.315553427571814, -38.509822826040811 ], [ 145.297939591014909, -38.507077014794881 ], [ 145.297253431965004, -38.49974598470228 ], [ 145.306946290851783, -38.49434583534557 ], [ 145.301181122572189, -38.4881868649057 ], [ 145.29124717446058, -38.487098974206262 ], [ 145.290817025311753, -38.480233974134364 ], [ 145.300554714899732, -38.468556074742132 ], [ 145.310213813545346, -38.465358865396588 ], [ 145.309732964275298, -38.459649875328168 ], [ 145.292801817439511, -38.458246854138459 ], [ 145.289920728871238, -38.450084863887732 ], [ 145.27698484105025, -38.451123912992614 ], [ 145.236364978702852, -38.447195860142351 ], [ 145.229689129606385, -38.449702759693828 ], [ 145.214540692395559, -38.448815848636549 ], [ 145.197690574955089, -38.452673147491197 ], [ 145.193819675217156, -38.456467227245987 ], [ 145.16685336892408, -38.466144605437201 ], [ 145.160881679345863, -38.471857705058817 ] ] ], [ [ [ 146.567785467361176, -38.742306938096263 ], [ 146.551733429391788, -38.749089966935422 ], [ 146.541945410324644, -38.75573394624341 ], [ 146.512558604731879, -38.762542974087815 ], [ 146.519221494434362, -38.755239934541081 ], [ 146.508545686746544, -38.751877983722935 ], [ 146.51348559659283, -38.745913954055517 ], [ 146.533588733898171, -38.738642935513838 ], [ 146.536102604611131, -38.729123915643683 ], [ 146.515578658066573, -38.730754004119269 ], [ 146.506071430452778, -38.72505699337426 ], [ 146.490347672714933, -38.729474912227502 ], [ 146.4709674462473, -38.728807930778117 ], [ 146.464804605995454, -38.739917970386706 ], [ 146.471396573607564, -38.749901940938962 ], [ 146.493980436618529, -38.774248922772038 ], [ 146.529403709120089, -38.783923925477374 ], [ 146.545345555426962, -38.790875966712427 ], [ 146.564751402964703, -38.782699928115647 ], [ 146.581007551773865, -38.768740919248863 ], [ 146.606563568693502, -38.756705951093011 ], [ 146.599822611056709, -38.747209960528885 ], [ 146.580498495988678, -38.735015939004619 ], [ 146.571586687431363, -38.736192968343751 ], [ 146.567785467361176, -38.742306938096263 ] ] ], [ [ [ 146.852112360147913, -38.634330008903284 ], [ 146.85981959925914, -38.630483929466173 ], [ 146.87863066647941, -38.62604297087136 ], [ 146.880605647295624, -38.61662701096401 ], [ 146.866001529910079, -38.616377979850142 ], [ 146.850305513159896, -38.612551978632091 ], [ 146.843553333745746, -38.617478928148806 ], [ 146.823859547733719, -38.613403006626932 ], [ 146.80318153053571, -38.620354975099666 ], [ 146.801977689410961, -38.631205025074927 ], [ 146.79128640096701, -38.633941024280723 ], [ 146.793692659202463, -38.644796004529816 ], [ 146.801416427507036, -38.647445965131993 ], [ 146.818517514520636, -38.647092986427985 ], [ 146.852112360147913, -38.634330008903284 ] ] ], [ [ [ 146.626985649095047, -38.723747952425811 ], [ 146.65179542533113, -38.718455954259667 ], [ 146.658589684507916, -38.715317924751986 ], [ 146.674394431879477, -38.713839945933522 ], [ 146.672124613665915, -38.702572945693504 ], [ 146.640728669606659, -38.69962398331166 ], [ 146.63638235953249, -38.70653599302706 ], [ 146.614945474256075, -38.699075971370107 ], [ 146.605920635847184, -38.699182000692964 ], [ 146.588078667647864, -38.710402929422607 ], [ 146.586357507155185, -38.716939979333482 ], [ 146.602991652983917, -38.726850970642325 ], [ 146.612753431746256, -38.722772981350438 ], [ 146.626985649095047, -38.723747952425811 ] ] ], [ [ [ 146.462892629522884, -38.71367198008388 ], [ 146.446177492675616, -38.71220994883015 ], [ 146.438851512393512, -38.725293958364908 ], [ 146.448308690307158, -38.728607939089009 ], [ 146.463277518424121, -38.722158990164417 ], [ 146.468138558140737, -38.717364950497341 ], [ 146.483689485317853, -38.717814971659529 ], [ 146.492549422941437, -38.724388922360738 ], [ 146.49957556232431, -38.719178922853303 ], [ 146.490008584705549, -38.713598912105184 ], [ 146.476083437382243, -38.711965951056563 ], [ 146.462892629522884, -38.71367198008388 ] ] ], [ [ [ 146.842969438183871, -38.663303968385669 ], [ 146.836749328844178, -38.66687994793466 ], [ 146.835446497919037, -38.676226977892959 ], [ 146.869924435694344, -38.644832020323562 ], [ 146.863939417539427, -38.638487999828911 ], [ 146.854794348124756, -38.646845939184189 ], [ 146.842969438183871, -38.663303968385669 ] ] ], [ [ [ 146.813601361739273, -38.676664996236056 ], [ 146.794539385115684, -38.676703974789724 ], [ 146.793892424766341, -38.680463994763706 ], [ 146.814065391129077, -38.680936946297479 ], [ 146.813601361739273, -38.676664996236056 ] ] ], [ [ [ 146.724093487545076, -38.677271959460036 ], [ 146.735934596052402, -38.672324930324763 ], [ 146.720696549422144, -38.666906929139842 ], [ 146.724093487545076, -38.677271959460036 ] ] ], [ [ [ 146.696636661193935, -38.687241977447904 ], [ 146.697926530278949, -38.692825937579428 ], [ 146.713094428050198, -38.689043948701261 ], [ 146.707738680515973, -38.676716918221345 ], [ 146.696636661193935, -38.687241977447904 ] ] ] ] } }
]
}
