{
  "type": "Feature",
  "geometry": {
    "type": "Polygon",
    "coordinates": [
      [
        [
          113.31186804446101,
          -27.102813223184963
        ],
        [
          112.343354889631,
          -26.9748638675254
        ],
        [
          112.4984131514141,
          -26.09370868418128
        ],
        [
          112.65106284458967,
          -25.211988406446455
        ],
        [
          112.80135923033794,
          -24.329509966392074
        ],
        [
          112.94935590508616,
          -23.446083463812347
        ],
        [
          113.09510486224042,
          -22.5615216616038
        ],
        [
          113.23865655121271,
          -21.675639505718095
        ],
        [
          113.34068076326751,
          -21.036883812729076
        ],
        [
          114.26139437241841,
          -21.159162781010146
        ],
        [
          114.39455913823012,
          -20.269885153354668
        ],
        [
          114.51532797178187,
          -19.45018092110451
        ],
        [
          115.4629418611396,
          -19.56968402452934
        ],
        [
          116.41238914794471,
          -19.682530130255195
        ],
        [
          117.36356998738047,
          -19.788705965845303
        ],
        [
          118.16382773965631,
          -19.872729618006222
        ],
        [
          118.2626287301746,
          -19.013475940911754
        ],
        [
          119.21001671514327,
          -19.106860686498216
        ],
        [
          120.08286443354216,
          -19.186881950087788
        ],
        [
          120.16752333157227,
          -18.324923760458212
        ],
        [
          121.07309832277028,
          -18.402008404508123
        ],
        [
          121.15343333310159,
          -17.501662243895016
        ],
        [
          121.23259849031402,
          -16.59901976841361
        ],
        [
          121.30131624188381,
          -15.802646930237652
        ],
        [
          122.1892141760993,
          -15.87263252607825
        ],
        [
          122.25709872268897,
          -15.001234293795955
        ],
        [
          123.13983863193371,
          -15.064893046539664
        ],
        [
          123.20328677316338,
          -14.154174738952586
        ],
        [
          123.2608629857604,
          -13.31368385035962
        ],
        [
          124.16877922212554,
          -13.373114576523971
        ],
        [
          125.07748815347216,
          -13.426026469898481
        ],
        [
          125.98689875895653,
          -13.472415381098891
        ],
        [
          126.8969195927354,
          -13.512277646930762
        ],
        [
          127.80745883855252,
          -13.545610100640175
        ],
        [
          128.718424364885,
          -13.57241008075131
        ],
        [
          129.37453163616826,
          -13.58765993210151
        ],
        [
          129.39313075293995,
          -12.670059939957927
        ],
        [
          129.4114682426481,
          -11.749176894995257
        ],
        [
          129.42739317188233,
          -10.935926664392312
        ],
        [
          130.3205291597573,
          -10.95133416239639
        ],
        [
          131.21382934809407,
          -10.960268279404296
        ],
        [
          132.0,
          -10.96277505857286
        ],
        [
          132.0,
          -10.072281823687854
        ],
        [
          132.88741524277756,
          -10.06905385223543
        ],
        [
          133.70376365689947,
          -10.060382385442447
        ],
        [
          133.71520001334918,
          -10.9508421461924
        ],
        [
          134.6083276181396,
          -10.935175730648886
        ],
        [
          135.50120031260923,
          -10.913036964156312
        ],
        [
          136.39373102740197,
          -10.88442725355127
        ],
        [
          137.14312898684437,
          -10.85539566384357
        ],
        [
          137.17930826447247,
          -11.779077235319612
        ],
        [
          137.21599986857007,
          -12.699280196191571
        ],
        [
          137.25321475296133,
          -13.616202314100777
        ],
        [
          137.29096418579672,
          -14.530038652868077
        ],
        [
          137.3215563867535,
          -15.259015587334426
        ],
        [
          138.24407564437692,
          -15.217795284403753
        ],
        [
          139.16594369393647,
          -15.170000115893279
        ],
        [
          139.97657328798056,
          -15.122505057460891
        ],
        [
          140.0322227186835,
          -15.994403160388604
        ],
        [
          140.9219372598283,
          -15.936553124132791
        ],
        [
          140.85760590253534,
          -15.028519191435182
        ],
        [
          140.7941941671255,
          -14.117685235289867
        ],
        [
          140.73168250502525,
          -13.203860639363823
        ],
        [
          140.67005191697478,
          -12.28685273639546
        ],
        [
          140.62136939128885,
          -11.55082338911994
        ],
        [
          141.48048767119013,
          -11.48805639577678
        ],
        [
          141.41707421011446,
          -10.602009368369606
        ],
        [
          140.5636661095487,
          -10.664591493199117
        ],
        [
          140.5067289802265,
          -9.774922725871457
        ],
        [
          141.3898084191446,
          -9.709781226291264
        ],
        [
          142.27198989291642,
          -9.63820430363485
        ],
        [
          143.15319077824466,
          -9.560195850619593
        ],
        [
          144.0333290085605,
          -9.47576005029537
        ],
        [
          144.73661971516773,
          -9.403586706908461
        ],
        [
          144.82155225185682,
          -10.29226096025902
        ],
        [
          143.97195405269903,
          -10.378602944262838
        ],
        [
          144.05576475582237,
          -11.300817170439966
        ],
        [
          144.14075362059006,
          -12.219428029410738
        ],
        [
          144.22694558887187,
          -13.13463222531016
        ],
        [
          144.30029534354114,
          -13.9009128923452
        ],
        [
          145.20921024815635,
          -13.809680860034902
        ],
        [
          146.04423058533857,
          -13.72000110994386
        ],
        [
          146.14505556896756,
          -14.628728520008071
        ],
        [
          146.24733263726196,
          -15.534544853616188
        ],
        [
          146.3385625854032,
          -16.32940363970081
        ],
        [
          147.2265055837939,
          -16.22877209346254
        ],
        [
          147.3379851993737,
          -17.129155562473414
        ],
        [
          147.45110120737056,
          -18.02713486357191
        ],
        [
          147.5520255728839,
          -18.815513443867864
        ],
        [
          148.45703946051236,
          -18.707348999861143
        ],
        [
          148.57499855626298,
          -19.56503162431358
        ],
        [
          149.48467202821814,
          -19.45018092110451
        ],
        [
          149.61072929685477,
          -20.305489245351897
        ],
        [
          150.52498856912746,
          -20.1838794573966
        ],
        [
          150.6593192367325,
          -21.036883812729076
        ],
        [
          151.57808484068366,
          -20.908439722755176
        ],
        [
          151.72685946102973,
          -21.794622438517347
        ],
        [
          151.86572693155964,
          -22.60858921524907
        ],
        [
          152.79546015415156,
          -22.472434621911468
        ],
        [
          152.95553542190896,
          -23.35504294563233
        ],
        [
          153.1049767697638,
          -24.165994582675253
        ],
        [
          154.04576206139154,
          -24.021870281409115
        ],
        [
          154.2176697566708,
          -24.901381681784724
        ],
        [
          154.39225179242456,
          -25.78002163202422
        ],
        [
          154.54814556898916,
          -26.552653614644782
        ],
        [
          153.58675328172765,
          -26.699762082593157
        ],
        [
          153.75222317387028,
          -27.543269324023456
        ],
        [
          154.7206797194445,
          -27.395075294592953
        ],
        [
          154.90320268646553,
          -28.272280278727134
        ],
        [
          155.0737046911272,
          -29.079191769400353
        ],
        [
          154.0908145881897,
          -29.229703347453917
        ],
        [
          154.27133042579965,
          -30.108133185490814
        ],
        [
          154.44000328473572,
          -30.916574446563533
        ],
        [
          153.43948519909935,
          -31.063034877643737
        ],
        [
          153.61773902929363,
          -31.943644015078487
        ],
        [
          153.78434501548793,
          -32.75452103914821
        ],
        [
          152.76561101805885,
          -32.89692885797757
        ],
        [
          152.93424001605842,
          -33.745359947660035
        ],
        [
          151.9048167364147,
          -33.88233646556849
        ],
        [
          152.06804042205715,
          -34.7333630749539
        ],
        [
          151.0277997118844,
          -34.86482067241976
        ],
        [
          151.19198826015094,
          -35.7543492242422
        ],
        [
          151.35901309053523,
          -36.645867273652286
        ],
        [
          151.5083994587362,
          -37.43227866050816
        ],
        [
          150.4400203749782,
          -37.56090535002307
        ],
        [
          150.59681340516343,
          -38.42255450435033
        ],
        [
          149.47191042391856,
          -38.5504101670513
        ],
        [
          148.43458220533685,
          -38.661079816277855
        ],
        [
          148.58189188475086,
          -39.564515287552986
        ],
        [
          148.7318509880145,
          -40.47137293316505
        ],
        [
          148.88453121554733,
          -41.38202557773535
        ],
        [
          149.0400068625994,
          -42.29687032593587
        ],
        [
          149.19835493695143,
          -43.21633144621755
        ],
        [
          149.32066957248054,
          -43.918487892216994
        ],
        [
          148.1310557184539,
          -44.04053196780382
        ],
        [
          146.93862299058176,
          -44.154018099029
        ],
        [
          145.7435698259543,
          -44.25889802393741
        ],
        [
          144.73784717288015,
          -44.34031320629084
        ],
        [
          144.61909172877043,
          -43.41067069281201
        ],
        [
          144.50252314573993,
          -42.48631742591779
        ],
        [
          144.38808175773804,
          -41.566782776364946
        ],
        [
          144.29355274553248,
          -40.7977757817825
        ],
        [
          143.18193846849488,
          -40.878646830424564
        ],
        [
          143.0811637901356,
          -39.96578243144825
        ],
        [
          142.9900382273742,
          -39.12922161449382
        ],
        [
          141.8500355951231,
          -39.20346103101009
        ],
        [
          140.70845909659957,
          -39.26960726562636
        ],
        [
          139.70271229590625,
          -39.32110337447639
        ],
        [
          139.6342988599714,
          -38.41262635811611
        ],
        [
          139.57242187006696,
          -37.57959275458957
        ],
        [
          138.4926636404651,
          -37.6274358003431
        ],
        [
          138.43817784289095,
          -36.760179761179195
        ],
        [
          137.32186670904744,
          -36.80174191302696
        ],
        [
          136.2941378108241,
          -36.833015054113254
        ],
        [
          136.25836801511429,
          -35.967298835695395
        ],
        [
          135.19429351894098,
          -35.99252941117171
        ],
        [
          135.16789653689565,
          -35.12864291566846
        ],
        [
          134.11217151763265,
          -35.146479671033696
        ],
        [
          134.09485607458834,
          -34.28425812058567
        ],
        [
          133.04749844832966,
          -34.29485296729487
        ],
        [
          133.03897980727024,
          -33.434132051108406
        ],
        [
          132.0,
          -33.437629179602155
        ],
        [
          132.0,
          -32.57824493845981
        ],
        [
          130.92646177372615,
          -32.57448641752507
        ],
        [
          129.8530751338257,
          -32.563211781672024
        ],
        [
          128.7799915382852,
          -32.54442380963801
        ],
        [
          127.87894613767538,
          -32.52283893612197
        ],
        [
          127.84545426289085,
          -33.381691701917596
        ],
        [
          126.76462725036734,
          -33.34878060411842
        ],
        [
          125.68454954623644,
          -33.30830304665314
        ],
        [
          124.73482285586526,
          -33.26643196984399
        ],
        [
          124.67288484898056,
          -34.16131806620297
        ],
        [
          124.6149628235402,
          -34.986086606144575
        ],
        [
          123.5190167141217,
          -34.93031231076012
        ],
        [
          122.4243192136992,
          -34.86685833332957
        ],
        [
          121.33102864192713,
          -34.79574204981012
        ],
        [
          120.41386679883607,
          -34.73009704471815
        ],
        [
          120.31781878040667,
          -35.589783511618016
        ],
        [
          119.26253643298445,
          -35.507323472556806
        ],
        [
          119.1561799732652,
          -36.36803490788275
        ],
        [
          118.04975739969818,
          -36.27361231226531
        ],
        [
          116.94543178042458,
          -36.17146068142286
        ],
        [
          115.97548581355919,
          -36.07519705928925
        ],
        [
          116.10768847648363,
          -35.21757944332213
        ],
        [
          115.01659891449991,
          -35.102197794293865
        ],
        [
          114.01498903743314,
          -34.989362632603125
        ],
        [
          114.16780488521404,
          -34.10025172408075
        ],
        [
          114.30613424031071,
          -33.28360664131508
        ],
        [
          115.33482226853961,
          -33.398888687503884
        ],
        [
          115.46884171976185,
          -32.54679788971113
        ],
        [
          114.44822247549558,
          -32.43259886327506
        ],
        [
          114.59383944535183,
          -31.54714209031136
        ],
        [
          114.72570215832003,
          -30.733229802274174
        ],
        [
          113.72299931064545,
          -30.61440187397853
        ],
        [
          113.86615223170205,
          -29.766627113249307
        ],
        [
          112.87331714429085,
          -29.642214894528742
        ],
        [
          113.02788851227237,
          -28.76047710693263
        ],
        [
          113.17999954195322,
          -27.878801312911264
        ],
        [
          113.31186804446101,
          -27.102813223184963
        ]
      ]
    ]
  },
  "properties": {
    "dataset_count": 36972,
    "product_name": "ga_ls_landcover_class_cyear_3",
    "time_spec": [
      null,
      null,
      null
    ]
  }
}